{"type": "FeatureCollection", "features": [{"type": "Feature", "properties": {"objectid": 1, "fossil_id": 91910, "species_name": "Maotianshania cylindrica", "geological_stage": "Tommotian", "max_age_ma": 525.5, "min_age_ma": 521.0, "longitude": 102.917221, "latitude": 24.669443, "province": "Yunnan", "biological_group": "动物", "chapter_label": "第一章"}, "geometry": {"type": "Point", "coordinates": [102.917221, 24.669443]}}, {"type": "Feature", "properties": {"objectid": 10, "fossil_id": 122782, "species_name": "Maotianshania cylindrica", "geological_stage": "Tommotian", "max_age_ma": 525.5, "min_age_ma": 521.0, "longitude": 102.917221, "latitude": 24.669443, "province": "Yunnan", "biological_group": "动物", "chapter_label": "第一章"}, "geometry": {"type": "Point", "coordinates": [102.917221, 24.669443]}}, {"type": "Feature", "properties": {"objectid": 11, "fossil_id": 122784, "species_name": "Palaeoscolex sinensis", "geological_stage": "Tommotian", "max_age_ma": 525.5, "min_age_ma": 521.0, "longitude": 102.917221, "latitude": 24.669443, "province": "Yunnan", "biological_group": "动物", "chapter_label": "第一章"}, "geometry": {"type": "Point", "coordinates": [102.917221, 24.669443]}}, {"type": "Feature", "properties": {"objectid": 12, "fossil_id": 122785, "species_name": "Palaeoscolex sinensis", "geological_stage": "Tommotian", "max_age_ma": 525.5, "min_age_ma": 521.0, "longitude": 102.917221, "latitude": 24.669443, "province": "Yunnan", "biological_group": "动物", "chapter_label": "第一章"}, "geometry": {"type": "Point", "coordinates": [102.917221, 24.669443]}}, {"type": "Feature", "properties": {"objectid": 13, "fossil_id": 122786, "species_name": "Palaeoscolex sinensis", "geological_stage": "Tommotian", "max_age_ma": 525.5, "min_age_ma": 521.0, "longitude": 102.917221, "latitude": 24.669443, "province": "Yunnan", "biological_group": "动物", "chapter_label": "第一章"}, "geometry": {"type": "Point", "coordinates": [102.917221, 24.669443]}}, {"type": "Feature", "properties": {"objectid": 14, "fossil_id": 123632, "species_name": "Palaeoscolex sinensis", "geological_stage": "Atdabanian", "max_age_ma": 521.0, "min_age_ma": 516.0, "longitude": 102.916664, "latitude": 24.666668, "province": "Yunnan", "biological_group": "动物", "chapter_label": "第一章"}, "geometry": {"type": "Point", "coordinates": [102.916664, 24.666668]}}, {"type": "Feature", "properties": {"objectid": 15, "fossil_id": 123633, "species_name": "Maotianshania cylindrica", "geological_stage": "Atdabanian", "max_age_ma": 521.0, "min_age_ma": 516.0, "longitude": 102.916664, "latitude": 24.666668, "province": "Yunnan", "biological_group": "动物", "chapter_label": "第一章"}, "geometry": {"type": "Point", "coordinates": [102.916664, 24.666668]}}, {"type": "Feature", "properties": {"objectid": 1687, "fossil_id": 1508425, "species_name": "Kwanyinaspis maotianshanensis n. gen. n. sp.", "geological_stage": "Tommotian", "max_age_ma": 525.5, "min_age_ma": 521.0, "longitude": 102.917221, "latitude": 24.669443, "province": "Yunnan", "biological_group": "动物", "chapter_label": "第一章"}, "geometry": {"type": "Point", "coordinates": [102.917221, 24.669443]}}, {"type": "Feature", "properties": {"objectid": 2, "fossil_id": 122357, "species_name": "Redlichia chinensis", "geological_stage": "Atdabanian", "max_age_ma": 521.0, "min_age_ma": 512.1, "longitude": 102.683334, "latitude": 25.066668, "province": "Yunnan", "biological_group": "动物", "chapter_label": "第一章"}, "geometry": {"type": "Point", "coordinates": [102.683334, 25.066668]}}, {"type": "Feature", "properties": {"objectid": 3, "fossil_id": 122358, "species_name": "Lingulellotreta malongensis", "geological_stage": "Atdabanian", "max_age_ma": 521.0, "min_age_ma": 512.1, "longitude": 102.683334, "latitude": 25.066668, "province": "Yunnan", "biological_group": "动物", "chapter_label": "第一章"}, "geometry": {"type": "Point", "coordinates": [102.683334, 25.066668]}}, {"type": "Feature", "properties": {"objectid": 4, "fossil_id": 122359, "species_name": "Trilobita indet.", "geological_stage": "Atdabanian", "max_age_ma": 521.0, "min_age_ma": 512.1, "longitude": 102.683334, "latitude": 25.066668, "province": "Yunnan", "biological_group": "动物", "chapter_label": "第一章"}, "geometry": {"type": "Point", "coordinates": [102.683334, 25.066668]}}, {"type": "Feature", "properties": {"objectid": 5, "fossil_id": 122360, "species_name": "Brachiopoda indet.", "geological_stage": "Atdabanian", "max_age_ma": 521.0, "min_age_ma": 512.1, "longitude": 102.683334, "latitude": 25.066668, "province": "Yunnan", "biological_group": "动物", "chapter_label": "第一章"}, "geometry": {"type": "Point", "coordinates": [102.683334, 25.066668]}}, {"type": "Feature", "properties": {"objectid": 16, "fossil_id": 130116, "species_name": "Isoxys spp.", "geological_stage": "Atdabanian", "max_age_ma": 521.0, "min_age_ma": 516.0, "longitude": 102.683334, "latitude": 25.066668, "province": "Yunnan", "biological_group": "动物", "chapter_label": "第一章"}, "geometry": {"type": "Point", "coordinates": [102.683334, 25.066668]}}, {"type": "Feature", "properties": {"objectid": 17, "fossil_id": 130117, "species_name": "Isoxys auritus", "geological_stage": "Atdabanian", "max_age_ma": 521.0, "min_age_ma": 516.0, "longitude": 102.683334, "latitude": 25.066668, "province": "Yunnan", "biological_group": "动物", "chapter_label": "第一章"}, "geometry": {"type": "Point", "coordinates": [102.683334, 25.066668]}}, {"type": "Feature", "properties": {"objectid": 18, "fossil_id": 130118, "species_name": "Isoxys paradoxus", "geological_stage": "Atdabanian", "max_age_ma": 521.0, "min_age_ma": 516.0, "longitude": 102.683334, "latitude": 25.066668, "province": "Yunnan", "biological_group": "动物", "chapter_label": "第一章"}, "geometry": {"type": "Point", "coordinates": [102.683334, 25.066668]}}, {"type": "Feature", "properties": {"objectid": 19, "fossil_id": 130119, "species_name": "Isoxys curvirostratus", "geological_stage": "Atdabanian", "max_age_ma": 521.0, "min_age_ma": 516.0, "longitude": 102.683334, "latitude": 25.066668, "province": "Yunnan", "biological_group": "动物", "chapter_label": "第一章"}, "geometry": {"type": "Point", "coordinates": [102.683334, 25.066668]}}, {"type": "Feature", "properties": {"objectid": 6, "fossil_id": 122361, "species_name": "Relichia chinensis", "geological_stage": "Atdabanian", "max_age_ma": 521.0, "min_age_ma": 512.1, "longitude": 103.566666, "latitude": 25.4, "province": "Yunnan", "biological_group": "动物", "chapter_label": "第一章"}, "geometry": {"type": "Point", "coordinates": [103.566666, 25.4]}}, {"type": "Feature", "properties": {"objectid": 7, "fossil_id": 122362, "species_name": "Lingulellotreta malongensis", "geological_stage": "Atdabanian", "max_age_ma": 521.0, "min_age_ma": 512.1, "longitude": 103.566666, "latitude": 25.4, "province": "Yunnan", "biological_group": "动物", "chapter_label": "第一章"}, "geometry": {"type": "Point", "coordinates": [103.566666, 25.4]}}, {"type": "Feature", "properties": {"objectid": 8, "fossil_id": 122363, "species_name": "Trilobita indet.", "geological_stage": "Atdabanian", "max_age_ma": 521.0, "min_age_ma": 512.1, "longitude": 103.566666, "latitude": 25.4, "province": "Yunnan", "biological_group": "动物", "chapter_label": "第一章"}, "geometry": {"type": "Point", "coordinates": [103.566666, 25.4]}}, {"type": "Feature", "properties": {"objectid": 9, "fossil_id": 122364, "species_name": "Brachiopoda indet.", "geological_stage": "Atdabanian", "max_age_ma": 521.0, "min_age_ma": 512.1, "longitude": 103.566666, "latitude": 25.4, "province": "Yunnan", "biological_group": "动物", "chapter_label": "第一章"}, "geometry": {"type": "Point", "coordinates": [103.566666, 25.4]}}, {"type": "Feature", "properties": {"objectid": 20, "fossil_id": 386875, "species_name": "Redlichia chinensis", "geological_stage": "Atdabanian", "max_age_ma": 521.0, "min_age_ma": 512.1, "longitude": 102.716667, "latitude": 25.033333, "province": "Yunnan", "biological_group": "动物", "chapter_label": "第一章"}, "geometry": {"type": "Point", "coordinates": [102.716667, 25.033333]}}, {"type": "Feature", "properties": {"objectid": 21, "fossil_id": 386876, "species_name": "Lingulellotreta malongensis", "geological_stage": "Atdabanian", "max_age_ma": 521.0, "min_age_ma": 512.1, "longitude": 102.716667, "latitude": 25.033333, "province": "Yunnan", "biological_group": "动物", "chapter_label": "第一章"}, "geometry": {"type": "Point", "coordinates": [102.716667, 25.033333]}}, {"type": "Feature", "properties": {"objectid": 22, "fossil_id": 386877, "species_name": "Trilobita indet.", "geological_stage": "Atdabanian", "max_age_ma": 521.0, "min_age_ma": 512.1, "longitude": 102.716667, "latitude": 25.033333, "province": "Yunnan", "biological_group": "动物", "chapter_label": "第一章"}, "geometry": {"type": "Point", "coordinates": [102.716667, 25.033333]}}, {"type": "Feature", "properties": {"objectid": 23, "fossil_id": 386878, "species_name": "Brachiopoda indet.", "geological_stage": "Atdabanian", "max_age_ma": 521.0, "min_age_ma": 512.1, "longitude": 102.716667, "latitude": 25.033333, "province": "Yunnan", "biological_group": "动物", "chapter_label": "第一章"}, "geometry": {"type": "Point", "coordinates": [102.716667, 25.033333]}}, {"type": "Feature", "properties": {"objectid": 1304, "fossil_id": 1373377, "species_name": "Petalilium latus", "geological_stage": "Atdabanian", "max_age_ma": 521.0, "min_age_ma": 512.1, "longitude": 102.716667, "latitude": 25.033333, "province": "Yunnan", "biological_group": "动物", "chapter_label": "第一章"}, "geometry": {"type": "Point", "coordinates": [102.716667, 25.033333]}}, {"type": "Feature", "properties": {"objectid": 24, "fossil_id": 492100, "species_name": "Latouchella cf. korobkovi", "geological_stage": "Tommotian", "max_age_ma": 525.5, "min_age_ma": 521.0, "longitude": 103.166664, "latitude": 26.333332, "province": "Yunnan", "biological_group": "动物", "chapter_label": "第一章"}, "geometry": {"type": "Point", "coordinates": [103.166664, 26.333332]}}, {"type": "Feature", "properties": {"objectid": 25, "fossil_id": 492101, "species_name": "Archaeospira ornata", "geological_stage": "Tommotian", "max_age_ma": 525.5, "min_age_ma": 521.0, "longitude": 103.166664, "latitude": 26.333332, "province": "Yunnan", "biological_group": "动物", "chapter_label": "第一章"}, "geometry": {"type": "Point", "coordinates": [103.166664, 26.333332]}}, {"type": "Feature", "properties": {"objectid": 26, "fossil_id": 492105, "species_name": "Archaeospira ornata", "geological_stage": "Tommotian", "max_age_ma": 525.5, "min_age_ma": 521.0, "longitude": 103.5, "latitude": 26.416668, "province": "Yunnan", "biological_group": "动物", "chapter_label": "第一章"}, "geometry": {"type": "Point", "coordinates": [103.5, 26.416668]}}, {"type": "Feature", "properties": {"objectid": 27, "fossil_id": 492106, "species_name": "Watsonella yunnanensis", "geological_stage": "Tommotian", "max_age_ma": 525.5, "min_age_ma": 521.0, "longitude": 103.5, "latitude": 26.416668, "province": "Yunnan", "biological_group": "动物", "chapter_label": "第一章"}, "geometry": {"type": "Point", "coordinates": [103.5, 26.416668]}}, {"type": "Feature", "properties": {"objectid": 28, "fossil_id": 493648, "species_name": "Helcionella yunnanensis n. sp.", "geological_stage": "Atdabanian", "max_age_ma": 521.0, "min_age_ma": 516.0, "longitude": 102.900002, "latitude": 24.75, "province": "Yunnan", "biological_group": "动物", "chapter_label": "第一章"}, "geometry": {"type": "Point", "coordinates": [102.900002, 24.75]}}, {"type": "Feature", "properties": {"objectid": 1694, "fossil_id": 1592436, "species_name": "Batofasciculus ramificans", "geological_stage": "Atdabanian", "max_age_ma": 521.0, "min_age_ma": 516.0, "longitude": 102.900002, "latitude": 24.75, "province": "Yunnan", "biological_group": "动物", "chapter_label": "第一章"}, "geometry": {"type": "Point", "coordinates": [102.900002, 24.75]}}, {"type": "Feature", "properties": {"objectid": 1695, "fossil_id": 1592437, "species_name": "Maotianoascus octonarius", "geological_stage": "Atdabanian", "max_age_ma": 521.0, "min_age_ma": 516.0, "longitude": 102.900002, "latitude": 24.75, "province": "Yunnan", "biological_group": "动物", "chapter_label": "第一章"}, "geometry": {"type": "Point", "coordinates": [102.900002, 24.75]}}, {"type": "Feature", "properties": {"objectid": 1696, "fossil_id": 1592438, "species_name": "Gemmactena actinala", "geological_stage": "Atdabanian", "max_age_ma": 521.0, "min_age_ma": 516.0, "longitude": 102.900002, "latitude": 24.75, "province": "Yunnan", "biological_group": "动物", "chapter_label": "第一章"}, "geometry": {"type": "Point", "coordinates": [102.900002, 24.75]}}, {"type": "Feature", "properties": {"objectid": 29, "fossil_id": 493649, "species_name": "Helcionella yunnanensis", "geological_stage": "Atdabanian", "max_age_ma": 521.0, "min_age_ma": 516.0, "longitude": 102.583336, "latitude": 24.683332, "province": "Yunnan", "biological_group": "动物", "chapter_label": "第一章"}, "geometry": {"type": "Point", "coordinates": [102.583336, 24.683332]}}, {"type": "Feature", "properties": {"objectid": 1253, "fossil_id": 1104581, "species_name": "Stromatoveris psygmoglena", "geological_stage": "Atdabanian", "max_age_ma": 521.0, "min_age_ma": 516.0, "longitude": 102.583336, "latitude": 24.683332, "province": "Yunnan", "biological_group": "动物", "chapter_label": "第一章"}, "geometry": {"type": "Point", "coordinates": [102.583336, 24.683332]}}, {"type": "Feature", "properties": {"objectid": 30, "fossil_id": 632610, "species_name": "Cheungkongella ancestralis n. gen. n. sp.", "geological_stage": "Atdabanian", "max_age_ma": 521.0, "min_age_ma": 516.0, "longitude": 102.584999, "latitude": 24.806944, "province": "Yunnan", "biological_group": "动物", "chapter_label": "第一章"}, "geometry": {"type": "Point", "coordinates": [102.584999, 24.806944]}}, {"type": "Feature", "properties": {"objectid": 67, "fossil_id": 797990, "species_name": "Cyathocephalus bispinosus", "geological_stage": "Atdabanian", "max_age_ma": 521.0, "min_age_ma": 516.0, "longitude": 102.584999, "latitude": 24.806944, "province": "Yunnan", "biological_group": "动物", "chapter_label": "第一章"}, "geometry": {"type": "Point", "coordinates": [102.584999, 24.806944]}}, {"type": "Feature", "properties": {"objectid": 102, "fossil_id": 798026, "species_name": "Amplectobelua trispinata", "geological_stage": "Atdabanian", "max_age_ma": 521.0, "min_age_ma": 516.0, "longitude": 102.584999, "latitude": 24.806944, "province": "Yunnan", "biological_group": "动物", "chapter_label": "第一章"}, "geometry": {"type": "Point", "coordinates": [102.584999, 24.806944]}}, {"type": "Feature", "properties": {"objectid": 137, "fossil_id": 798061, "species_name": "Haikouella lanceolata", "geological_stage": "Atdabanian", "max_age_ma": 521.0, "min_age_ma": 516.0, "longitude": 102.584999, "latitude": 24.806944, "province": "Yunnan", "biological_group": "动物", "chapter_label": "第一章"}, "geometry": {"type": "Point", "coordinates": [102.584999, 24.806944]}}, {"type": "Feature", "properties": {"objectid": 330, "fossil_id": 799009, "species_name": "Anomalocaris sp.", "geological_stage": "Atdabanian", "max_age_ma": 521.0, "min_age_ma": 516.0, "longitude": 102.583336, "latitude": 24.799999, "province": "Yunnan", "biological_group": "动物", "chapter_label": "第一章"}, "geometry": {"type": "Point", "coordinates": [102.583336, 24.799999]}}, {"type": "Feature", "properties": {"objectid": 365, "fossil_id": 799044, "species_name": "Yunnanozoon sp.", "geological_stage": "Atdabanian", "max_age_ma": 521.0, "min_age_ma": 516.0, "longitude": 102.584999, "latitude": 24.806944, "province": "Yunnan", "biological_group": "动物", "chapter_label": "第一章"}, "geometry": {"type": "Point", "coordinates": [102.584999, 24.806944]}}, {"type": "Feature", "properties": {"objectid": 400, "fossil_id": 799079, "species_name": "Saperion sp.", "geological_stage": "Atdabanian", "max_age_ma": 521.0, "min_age_ma": 516.0, "longitude": 102.584999, "latitude": 24.806944, "province": "Yunnan", "biological_group": "动物", "chapter_label": "第一章"}, "geometry": {"type": "Point", "coordinates": [102.584999, 24.806944]}}, {"type": "Feature", "properties": {"objectid": 466, "fossil_id": 819788, "species_name": "Sicyophorus rara", "geological_stage": "Atdabanian", "max_age_ma": 521.0, "min_age_ma": 516.0, "longitude": 102.584999, "latitude": 24.806944, "province": "Yunnan", "biological_group": "动物", "chapter_label": "第一章"}, "geometry": {"type": "Point", "coordinates": [102.584999, 24.806944]}}, {"type": "Feature", "properties": {"objectid": 501, "fossil_id": 819828, "species_name": "Naraoia longicaudata", "geological_stage": "Atdabanian", "max_age_ma": 521.0, "min_age_ma": 516.0, "longitude": 102.584999, "latitude": 24.806944, "province": "Yunnan", "biological_group": "动物", "chapter_label": "第一章"}, "geometry": {"type": "Point", "coordinates": [102.584999, 24.806944]}}, {"type": "Feature", "properties": {"objectid": 536, "fossil_id": 820005, "species_name": "Problematica indet.", "geological_stage": "Atdabanian", "max_age_ma": 521.0, "min_age_ma": 516.0, "longitude": 102.584999, "latitude": 24.806944, "province": "Yunnan", "biological_group": "动物", "chapter_label": "第一章"}, "geometry": {"type": "Point", "coordinates": [102.584999, 24.806944]}}, {"type": "Feature", "properties": {"objectid": 572, "fossil_id": 820052, "species_name": "Fuxianhuia protensa", "geological_stage": "Atdabanian", "max_age_ma": 521.0, "min_age_ma": 516.0, "longitude": 102.584999, "latitude": 24.806944, "province": "Yunnan", "biological_group": "动物", "chapter_label": "第一章"}, "geometry": {"type": "Point", "coordinates": [102.584999, 24.806944]}}, {"type": "Feature", "properties": {"objectid": 607, "fossil_id": 820092, "species_name": "? Sponge ? gemmule", "geological_stage": "Atdabanian", "max_age_ma": 521.0, "min_age_ma": 516.0, "longitude": 102.584999, "latitude": 24.806944, "province": "Yunnan", "biological_group": "动物", "chapter_label": "第一章"}, "geometry": {"type": "Point", "coordinates": [102.584999, 24.806944]}}, {"type": "Feature", "properties": {"objectid": 642, "fossil_id": 820128, "species_name": "Triticispongia diagonata", "geological_stage": "Atdabanian", "max_age_ma": 521.0, "min_age_ma": 516.0, "longitude": 102.583336, "latitude": 24.799999, "province": "Yunnan", "biological_group": "动物", "chapter_label": "第一章"}, "geometry": {"type": "Point", "coordinates": [102.583336, 24.799999]}}, {"type": "Feature", "properties": {"objectid": 38, "fossil_id": 636955, "species_name": "Shankouclava anningense n. gen. n. sp.", "geological_stage": "Atdabanian", "max_age_ma": 521.0, "min_age_ma": 516.0, "longitude": 102.48333, "latitude": 24.916668, "province": "Yunnan", "biological_group": "动物", "chapter_label": "第一章"}, "geometry": {"type": "Point", "coordinates": [102.48333, 24.916668]}}, {"type": "Feature", "properties": {"objectid": 1688, "fossil_id": 1523257, "species_name": "Shenzianyuloma yunnanense n. gen. n. sp.", "geological_stage": "Atdabanian", "max_age_ma": 521.0, "min_age_ma": 516.0, "longitude": 102.48333, "latitude": 24.916668, "province": "Yunnan", "biological_group": "动物", "chapter_label": "第一章"}, "geometry": {"type": "Point", "coordinates": [102.48333, 24.916668]}}, {"type": "Feature", "properties": {"objectid": 39, "fossil_id": 797340, "species_name": "Microdictyon sp.", "geological_stage": "Atdabanian", "max_age_ma": 521.0, "min_age_ma": 516.0, "longitude": 102.173615, "latitude": 25.679722, "province": "Yunnan", "biological_group": "动物", "chapter_label": "第一章"}, "geometry": {"type": "Point", "coordinates": [102.173615, 25.679722]}}, {"type": "Feature", "properties": {"objectid": 426, "fossil_id": 819743, "species_name": "Diandongia pista", "geological_stage": "Atdabanian", "max_age_ma": 521.0, "min_age_ma": 516.0, "longitude": 102.173615, "latitude": 25.679722, "province": "Yunnan", "biological_group": "动物", "chapter_label": "第一章"}, "geometry": {"type": "Point", "coordinates": [102.173615, 25.679722]}}, {"type": "Feature", "properties": {"objectid": 434, "fossil_id": 819751, "species_name": "Comptaluta inflata", "geological_stage": "Atdabanian", "max_age_ma": 521.0, "min_age_ma": 516.0, "longitude": 102.173615, "latitude": 25.679722, "province": "Yunnan", "biological_group": "动物", "chapter_label": "第一章"}, "geometry": {"type": "Point", "coordinates": [102.173615, 25.679722]}}, {"type": "Feature", "properties": {"objectid": 442, "fossil_id": 819759, "species_name": "Allonia phrixothrix", "geological_stage": "Atdabanian", "max_age_ma": 521.0, "min_age_ma": 516.0, "longitude": 102.173615, "latitude": 25.679722, "province": "Yunnan", "biological_group": "动物", "chapter_label": "第一章"}, "geometry": {"type": "Point", "coordinates": [102.173615, 25.679722]}}, {"type": "Feature", "properties": {"objectid": 791, "fossil_id": 821171, "species_name": "Redlichia noetlingi", "geological_stage": "Botomian", "max_age_ma": 516.0, "min_age_ma": 512.1, "longitude": 102.173615, "latitude": 25.679722, "province": "Yunnan", "biological_group": "动物", "chapter_label": "第一章"}, "geometry": {"type": "Point", "coordinates": [102.173615, 25.679722]}}, {"type": "Feature", "properties": {"objectid": 799, "fossil_id": 821179, "species_name": "Lingulellotreta malongensis", "geological_stage": "Botomian", "max_age_ma": 516.0, "min_age_ma": 512.1, "longitude": 102.173615, "latitude": 25.679722, "province": "Yunnan", "biological_group": "动物", "chapter_label": "第一章"}, "geometry": {"type": "Point", "coordinates": [102.173615, 25.679722]}}, {"type": "Feature", "properties": {"objectid": 807, "fossil_id": 821189, "species_name": "Palaeolenus douvillei", "geological_stage": "Botomian", "max_age_ma": 516.0, "min_age_ma": 512.1, "longitude": 102.173615, "latitude": 25.679722, "province": "Yunnan", "biological_group": "动物", "chapter_label": "第一章"}, "geometry": {"type": "Point", "coordinates": [102.173615, 25.679722]}}, {"type": "Feature", "properties": {"objectid": 816, "fossil_id": 821198, "species_name": "Diandongia pista", "geological_stage": "Botomian", "max_age_ma": 516.0, "min_age_ma": 512.1, "longitude": 102.173615, "latitude": 25.679722, "province": "Yunnan", "biological_group": "动物", "chapter_label": "第一章"}, "geometry": {"type": "Point", "coordinates": [102.173615, 25.679722]}}, {"type": "Feature", "properties": {"objectid": 824, "fossil_id": 821225, "species_name": "Panlongia tetranodusa", "geological_stage": "Botomian", "max_age_ma": 516.0, "min_age_ma": 512.1, "longitude": 102.173615, "latitude": 25.679722, "province": "Yunnan", "biological_group": "动物", "chapter_label": "第一章"}, "geometry": {"type": "Point", "coordinates": [102.173615, 25.679722]}}, {"type": "Feature", "properties": {"objectid": 832, "fossil_id": 821233, "species_name": "Linevitus malongensis", "geological_stage": "Botomian", "max_age_ma": 516.0, "min_age_ma": 512.1, "longitude": 102.173615, "latitude": 25.679722, "province": "Yunnan", "biological_group": "动物", "chapter_label": "第一章"}, "geometry": {"type": "Point", "coordinates": [102.173615, 25.679722]}}, {"type": "Feature", "properties": {"objectid": 840, "fossil_id": 821242, "species_name": "Acrothele sp.", "geological_stage": "Botomian", "max_age_ma": 516.0, "min_age_ma": 512.1, "longitude": 102.173615, "latitude": 25.679722, "province": "Yunnan", "biological_group": "动物", "chapter_label": "第一章"}, "geometry": {"type": "Point", "coordinates": [102.173615, 25.679722]}}, {"type": "Feature", "properties": {"objectid": 848, "fossil_id": 821250, "species_name": "Anomalocaris saron", "geological_stage": "Botomian", "max_age_ma": 516.0, "min_age_ma": 512.1, "longitude": 102.173615, "latitude": 25.679722, "province": "Yunnan", "biological_group": "动物", "chapter_label": "第一章"}, "geometry": {"type": "Point", "coordinates": [102.173615, 25.679722]}}, {"type": "Feature", "properties": {"objectid": 856, "fossil_id": 821258, "species_name": "Palaeolenus lantenoisi", "geological_stage": "Botomian", "max_age_ma": 516.0, "min_age_ma": 512.1, "longitude": 102.173615, "latitude": 25.679722, "province": "Yunnan", "biological_group": "动物", "chapter_label": "第一章"}, "geometry": {"type": "Point", "coordinates": [102.173615, 25.679722]}}, {"type": "Feature", "properties": {"objectid": 170, "fossil_id": 798113, "species_name": "Choia xiaolantianensis", "geological_stage": "Atdabanian", "max_age_ma": 521.0, "min_age_ma": 516.0, "longitude": 103.383331, "latitude": 25.4, "province": "Yunnan", "biological_group": "动物", "chapter_label": "第一章"}, "geometry": {"type": "Point", "coordinates": [103.383331, 25.4]}}, {"type": "Feature", "properties": {"objectid": 202, "fossil_id": 798147, "species_name": "Wutingaspis malungensis", "geological_stage": "Atdabanian", "max_age_ma": 521.0, "min_age_ma": 516.0, "longitude": 103.383331, "latitude": 25.4, "province": "Yunnan", "biological_group": "动物", "chapter_label": "第一章"}, "geometry": {"type": "Point", "coordinates": [103.383331, 25.4]}}, {"type": "Feature", "properties": {"objectid": 245, "fossil_id": 798193, "species_name": "Canadaspis laevigata", "geological_stage": "Atdabanian", "max_age_ma": 521.0, "min_age_ma": 516.0, "longitude": 103.383331, "latitude": 25.4, "province": "Yunnan", "biological_group": "动物", "chapter_label": "第一章"}, "geometry": {"type": "Point", "coordinates": [103.383331, 25.4]}}, {"type": "Feature", "properties": {"objectid": 252, "fossil_id": 798200, "species_name": "Anomalocaris saron", "geological_stage": "Atdabanian", "max_age_ma": 521.0, "min_age_ma": 516.0, "longitude": 103.383331, "latitude": 25.4, "province": "Yunnan", "biological_group": "动物", "chapter_label": "第一章"}, "geometry": {"type": "Point", "coordinates": [103.383331, 25.4]}}, {"type": "Feature", "properties": {"objectid": 259, "fossil_id": 798207, "species_name": "Fuxianospira gyrata", "geological_stage": "Atdabanian", "max_age_ma": 521.0, "min_age_ma": 516.0, "longitude": 103.383331, "latitude": 25.4, "province": "Yunnan", "biological_group": "动物", "chapter_label": "第一章"}, "geometry": {"type": "Point", "coordinates": [103.383331, 25.4]}}, {"type": "Feature", "properties": {"objectid": 669, "fossil_id": 820155, "species_name": "Microdictyon sinicum", "geological_stage": "Atdabanian", "max_age_ma": 521.0, "min_age_ma": 516.0, "longitude": 103.383331, "latitude": 25.4, "province": "Yunnan", "biological_group": "动物", "chapter_label": "第一章"}, "geometry": {"type": "Point", "coordinates": [103.383331, 25.4]}}, {"type": "Feature", "properties": {"objectid": 680, "fossil_id": 820168, "species_name": "Heliomedusa orienta", "geological_stage": "Atdabanian", "max_age_ma": 521.0, "min_age_ma": 516.0, "longitude": 103.383331, "latitude": 25.4, "province": "Yunnan", "biological_group": "动物", "chapter_label": "第一章"}, "geometry": {"type": "Point", "coordinates": [103.383331, 25.4]}}, {"type": "Feature", "properties": {"objectid": 687, "fossil_id": 820175, "species_name": "Isoxys sp.", "geological_stage": "Atdabanian", "max_age_ma": 521.0, "min_age_ma": 516.0, "longitude": 103.383331, "latitude": 25.4, "province": "Yunnan", "biological_group": "动物", "chapter_label": "第一章"}, "geometry": {"type": "Point", "coordinates": [103.383331, 25.4]}}, {"type": "Feature", "properties": {"objectid": 694, "fossil_id": 820182, "species_name": "Pectocaris spatiosa", "geological_stage": "Atdabanian", "max_age_ma": 521.0, "min_age_ma": 516.0, "longitude": 103.383331, "latitude": 25.4, "province": "Yunnan", "biological_group": "动物", "chapter_label": "第一章"}, "geometry": {"type": "Point", "coordinates": [103.383331, 25.4]}}, {"type": "Feature", "properties": {"objectid": 700, "fossil_id": 820188, "species_name": "Naraoia longicaudata", "geological_stage": "Atdabanian", "max_age_ma": 521.0, "min_age_ma": 516.0, "longitude": 103.383331, "latitude": 25.4, "province": "Yunnan", "biological_group": "动物", "chapter_label": "第一章"}, "geometry": {"type": "Point", "coordinates": [103.383331, 25.4]}}, {"type": "Feature", "properties": {"objectid": 712, "fossil_id": 820200, "species_name": "Hyalocinica sp.", "geological_stage": "Atdabanian", "max_age_ma": 521.0, "min_age_ma": 516.0, "longitude": 103.383331, "latitude": 25.4, "province": "Yunnan", "biological_group": "动物", "chapter_label": "第一章"}, "geometry": {"type": "Point", "coordinates": [103.383331, 25.4]}}, {"type": "Feature", "properties": {"objectid": 719, "fossil_id": 820207, "species_name": "Choiaella radiata", "geological_stage": "Atdabanian", "max_age_ma": 521.0, "min_age_ma": 516.0, "longitude": 103.383331, "latitude": 25.4, "province": "Yunnan", "biological_group": "动物", "chapter_label": "第一章"}, "geometry": {"type": "Point", "coordinates": [103.383331, 25.4]}}, {"type": "Feature", "properties": {"objectid": 732, "fossil_id": 820220, "species_name": "Amplectobelua symbrachiata", "geological_stage": "Atdabanian", "max_age_ma": 521.0, "min_age_ma": 516.0, "longitude": 103.383331, "latitude": 25.4, "province": "Yunnan", "biological_group": "动物", "chapter_label": "第一章"}, "geometry": {"type": "Point", "coordinates": [103.383331, 25.4]}}, {"type": "Feature", "properties": {"objectid": 172, "fossil_id": 798115, "species_name": "Combinivalvula chengjiangensis", "geological_stage": "Atdabanian", "max_age_ma": 521.0, "min_age_ma": 516.0, "longitude": 102.650833, "latitude": 24.671944, "province": "Yunnan", "biological_group": "动物", "chapter_label": "第一章"}, "geometry": {"type": "Point", "coordinates": [102.650833, 24.671944]}}, {"type": "Feature", "properties": {"objectid": 173, "fossil_id": 798116, "species_name": "Isoxys auritus", "geological_stage": "Atdabanian", "max_age_ma": 521.0, "min_age_ma": 516.0, "longitude": 102.650833, "latitude": 24.671944, "province": "Yunnan", "biological_group": "动物", "chapter_label": "第一章"}, "geometry": {"type": "Point", "coordinates": [102.650833, 24.671944]}}, {"type": "Feature", "properties": {"objectid": 175, "fossil_id": 798118, "species_name": "Kunyangella cheni", "geological_stage": "Atdabanian", "max_age_ma": 521.0, "min_age_ma": 516.0, "longitude": 102.650833, "latitude": 24.671944, "province": "Yunnan", "biological_group": "动物", "chapter_label": "第一章"}, "geometry": {"type": "Point", "coordinates": [102.650833, 24.671944]}}, {"type": "Feature", "properties": {"objectid": 177, "fossil_id": 798121, "species_name": "Eoredlichia intermedia", "geological_stage": "Atdabanian", "max_age_ma": 521.0, "min_age_ma": 516.0, "longitude": 102.650833, "latitude": 24.671944, "province": "Yunnan", "biological_group": "动物", "chapter_label": "第一章"}, "geometry": {"type": "Point", "coordinates": [102.650833, 24.671944]}}, {"type": "Feature", "properties": {"objectid": 179, "fossil_id": 798123, "species_name": "Onychodictyon ferox", "geological_stage": "Atdabanian", "max_age_ma": 521.0, "min_age_ma": 516.0, "longitude": 102.650833, "latitude": 24.671944, "province": "Yunnan", "biological_group": "动物", "chapter_label": "第一章"}, "geometry": {"type": "Point", "coordinates": [102.650833, 24.671944]}}, {"type": "Feature", "properties": {"objectid": 181, "fossil_id": 798125, "species_name": "Palaeoscolex sinensis", "geological_stage": "Atdabanian", "max_age_ma": 521.0, "min_age_ma": 516.0, "longitude": 102.650833, "latitude": 24.671944, "province": "Yunnan", "biological_group": "动物", "chapter_label": "第一章"}, "geometry": {"type": "Point", "coordinates": [102.650833, 24.671944]}}, {"type": "Feature", "properties": {"objectid": 183, "fossil_id": 798127, "species_name": "Sabellidites yunnanesis", "geological_stage": "Atdabanian", "max_age_ma": 521.0, "min_age_ma": 516.0, "longitude": 102.650833, "latitude": 24.671944, "province": "Yunnan", "biological_group": "动物", "chapter_label": "第一章"}, "geometry": {"type": "Point", "coordinates": [102.650833, 24.671944]}}, {"type": "Feature", "properties": {"objectid": 184, "fossil_id": 798128, "species_name": "Heliomedusa orienta", "geological_stage": "Atdabanian", "max_age_ma": 521.0, "min_age_ma": 516.0, "longitude": 102.650833, "latitude": 24.671944, "province": "Yunnan", "biological_group": "动物", "chapter_label": "第一章"}, "geometry": {"type": "Point", "coordinates": [102.650833, 24.671944]}}, {"type": "Feature", "properties": {"objectid": 261, "fossil_id": 798209, "species_name": "Fuxianhuia protensa", "geological_stage": "Atdabanian", "max_age_ma": 521.0, "min_age_ma": 516.0, "longitude": 102.650833, "latitude": 24.671944, "province": "Yunnan", "biological_group": "动物", "chapter_label": "第一章"}, "geometry": {"type": "Point", "coordinates": [102.650833, 24.671944]}}, {"type": "Feature", "properties": {"objectid": 263, "fossil_id": 798211, "species_name": "Branchiocaris yunnanensis", "geological_stage": "Atdabanian", "max_age_ma": 521.0, "min_age_ma": 516.0, "longitude": 102.650833, "latitude": 24.671944, "province": "Yunnan", "biological_group": "动物", "chapter_label": "第一章"}, "geometry": {"type": "Point", "coordinates": [102.650833, 24.671944]}}, {"type": "Feature", "properties": {"objectid": 265, "fossil_id": 798213, "species_name": "Kuanyangia pustulosa", "geological_stage": "Atdabanian", "max_age_ma": 521.0, "min_age_ma": 516.0, "longitude": 102.650833, "latitude": 24.671944, "province": "Yunnan", "biological_group": "动物", "chapter_label": "第一章"}, "geometry": {"type": "Point", "coordinates": [102.650833, 24.671944]}}, {"type": "Feature", "properties": {"objectid": 267, "fossil_id": 798215, "species_name": "Glossolites magnus", "geological_stage": "Atdabanian", "max_age_ma": 521.0, "min_age_ma": 516.0, "longitude": 102.650833, "latitude": 24.671944, "province": "Yunnan", "biological_group": "动物", "chapter_label": "第一章"}, "geometry": {"type": "Point", "coordinates": [102.650833, 24.671944]}}, {"type": "Feature", "properties": {"objectid": 1014, "fossil_id": 871972, "species_name": "Tsunyidiscus aclis", "geological_stage": "Atdabanian", "max_age_ma": 521.0, "min_age_ma": 516.0, "longitude": 102.650833, "latitude": 24.671944, "province": "Yunnan", "biological_group": "动物", "chapter_label": "第一章"}, "geometry": {"type": "Point", "coordinates": [102.650833, 24.671944]}}, {"type": "Feature", "properties": {"objectid": 186, "fossil_id": 798130, "species_name": "Amplectobelua trispinata", "geological_stage": "Atdabanian", "max_age_ma": 521.0, "min_age_ma": 516.0, "longitude": 102.400558, "latitude": 25.501389, "province": "Yunnan", "biological_group": "动物", "chapter_label": "第一章"}, "geometry": {"type": "Point", "coordinates": [102.400558, 25.501389]}}, {"type": "Feature", "properties": {"objectid": 187, "fossil_id": 798131, "species_name": "Diandongia pista", "geological_stage": "Atdabanian", "max_age_ma": 521.0, "min_age_ma": 516.0, "longitude": 102.400558, "latitude": 25.501389, "province": "Yunnan", "biological_group": "动物", "chapter_label": "第一章"}, "geometry": {"type": "Point", "coordinates": [102.400558, 25.501389]}}, {"type": "Feature", "properties": {"objectid": 234, "fossil_id": 798182, "species_name": "Kunmingella doubillei", "geological_stage": "Atdabanian", "max_age_ma": 521.0, "min_age_ma": 516.0, "longitude": 102.400558, "latitude": 25.501389, "province": "Yunnan", "biological_group": "动物", "chapter_label": "第一章"}, "geometry": {"type": "Point", "coordinates": [102.400558, 25.501389]}}, {"type": "Feature", "properties": {"objectid": 235, "fossil_id": 798183, "species_name": "Isoxys auritus", "geological_stage": "Atdabanian", "max_age_ma": 521.0, "min_age_ma": 516.0, "longitude": 102.400558, "latitude": 25.501389, "province": "Yunnan", "biological_group": "动物", "chapter_label": "第一章"}, "geometry": {"type": "Point", "coordinates": [102.400558, 25.501389]}}, {"type": "Feature", "properties": {"objectid": 236, "fossil_id": 798184, "species_name": "Chuandianella ovata", "geological_stage": "Atdabanian", "max_age_ma": 521.0, "min_age_ma": 516.0, "longitude": 102.400558, "latitude": 25.501389, "province": "Yunnan", "biological_group": "动物", "chapter_label": "第一章"}, "geometry": {"type": "Point", "coordinates": [102.400558, 25.501389]}}, {"type": "Feature", "properties": {"objectid": 237, "fossil_id": 798185, "species_name": "Eoredlichia intermedia", "geological_stage": "Atdabanian", "max_age_ma": 521.0, "min_age_ma": 516.0, "longitude": 102.400558, "latitude": 25.501389, "province": "Yunnan", "biological_group": "动物", "chapter_label": "第一章"}, "geometry": {"type": "Point", "coordinates": [102.400558, 25.501389]}}, {"type": "Feature", "properties": {"objectid": 238, "fossil_id": 798186, "species_name": "Wutingaspis tingi", "geological_stage": "Atdabanian", "max_age_ma": 521.0, "min_age_ma": 516.0, "longitude": 102.400558, "latitude": 25.501389, "province": "Yunnan", "biological_group": "动物", "chapter_label": "第一章"}, "geometry": {"type": "Point", "coordinates": [102.400558, 25.501389]}}, {"type": "Feature", "properties": {"objectid": 239, "fossil_id": 798187, "species_name": "Fuxianospira gyrata", "geological_stage": "Atdabanian", "max_age_ma": 521.0, "min_age_ma": 516.0, "longitude": 102.400558, "latitude": 25.501389, "province": "Yunnan", "biological_group": "动物", "chapter_label": "第一章"}, "geometry": {"type": "Point", "coordinates": [102.400558, 25.501389]}}, {"type": "Feature", "properties": {"objectid": 188, "fossil_id": 798132, "species_name": "Kunmingella douvillei", "geological_stage": "Atdabanian", "max_age_ma": 521.0, "min_age_ma": 516.0, "longitude": 102.410278, "latitude": 24.84, "province": "Yunnan", "biological_group": "动物", "chapter_label": "第一章"}, "geometry": {"type": "Point", "coordinates": [102.410278, 24.84]}}, {"type": "Feature", "properties": {"objectid": 195, "fossil_id": 798139, "species_name": "Shankouclausa anningense", "geological_stage": "Atdabanian", "max_age_ma": 521.0, "min_age_ma": 516.0, "longitude": 102.410278, "latitude": 24.84, "province": "Yunnan", "biological_group": "动物", "chapter_label": "第一章"}, "geometry": {"type": "Point", "coordinates": [102.410278, 24.84]}}, {"type": "Feature", "properties": {"objectid": 210, "fossil_id": 798155, "species_name": "Kumaia lata", "geological_stage": "Atdabanian", "max_age_ma": 521.0, "min_age_ma": 516.0, "longitude": 102.410278, "latitude": 24.84, "province": "Yunnan", "biological_group": "动物", "chapter_label": "第一章"}, "geometry": {"type": "Point", "coordinates": [102.410278, 24.84]}}, {"type": "Feature", "properties": {"objectid": 217, "fossil_id": 798162, "species_name": "Acanthomeridion serratum", "geological_stage": "Atdabanian", "max_age_ma": 521.0, "min_age_ma": 516.0, "longitude": 102.410278, "latitude": 24.84, "province": "Yunnan", "biological_group": "动物", "chapter_label": "第一章"}, "geometry": {"type": "Point", "coordinates": [102.410278, 24.84]}}, {"type": "Feature", "properties": {"objectid": 225, "fossil_id": 798170, "species_name": "Palaeoscolex sinensis", "geological_stage": "Atdabanian", "max_age_ma": 521.0, "min_age_ma": 516.0, "longitude": 102.410278, "latitude": 24.84, "province": "Yunnan", "biological_group": "动物", "chapter_label": "第一章"}, "geometry": {"type": "Point", "coordinates": [102.410278, 24.84]}}, {"type": "Feature", "properties": {"objectid": 233, "fossil_id": 798178, "species_name": "Sinocylindra yunnanensis", "geological_stage": "Atdabanian", "max_age_ma": 521.0, "min_age_ma": 516.0, "longitude": 102.410278, "latitude": 24.84, "province": "Yunnan", "biological_group": "动物", "chapter_label": "第一章"}, "geometry": {"type": "Point", "coordinates": [102.410278, 24.84]}}, {"type": "Feature", "properties": {"objectid": 275, "fossil_id": 798954, "species_name": "Waptia sp.", "geological_stage": "Atdabanian", "max_age_ma": 521.0, "min_age_ma": 516.0, "longitude": 102.410278, "latitude": 24.84, "province": "Yunnan", "biological_group": "动物", "chapter_label": "第一章"}, "geometry": {"type": "Point", "coordinates": [102.410278, 24.84]}}, {"type": "Feature", "properties": {"objectid": 283, "fossil_id": 798962, "species_name": "Isoxys sp.", "geological_stage": "Atdabanian", "max_age_ma": 521.0, "min_age_ma": 516.0, "longitude": 102.410278, "latitude": 24.84, "province": "Yunnan", "biological_group": "动物", "chapter_label": "第一章"}, "geometry": {"type": "Point", "coordinates": [102.410278, 24.84]}}, {"type": "Feature", "properties": {"objectid": 290, "fossil_id": 798969, "species_name": "Paraleptomitella sp.", "geological_stage": "Atdabanian", "max_age_ma": 521.0, "min_age_ma": 516.0, "longitude": 102.410278, "latitude": 24.84, "province": "Yunnan", "biological_group": "动物", "chapter_label": "第一章"}, "geometry": {"type": "Point", "coordinates": [102.410278, 24.84]}}, {"type": "Feature", "properties": {"objectid": 298, "fossil_id": 798977, "species_name": "Priapulida indet.", "geological_stage": "Atdabanian", "max_age_ma": 521.0, "min_age_ma": 516.0, "longitude": 102.410278, "latitude": 24.84, "province": "Yunnan", "biological_group": "动物", "chapter_label": "第一章"}, "geometry": {"type": "Point", "coordinates": [102.410278, 24.84]}}, {"type": "Feature", "properties": {"objectid": 306, "fossil_id": 798985, "species_name": "Eldonia sp.", "geological_stage": "Atdabanian", "max_age_ma": 521.0, "min_age_ma": 516.0, "longitude": 102.410278, "latitude": 24.84, "province": "Yunnan", "biological_group": "动物", "chapter_label": "第一章"}, "geometry": {"type": "Point", "coordinates": [102.410278, 24.84]}}, {"type": "Feature", "properties": {"objectid": 313, "fossil_id": 798992, "species_name": "Anningvermis sp.", "geological_stage": "Atdabanian", "max_age_ma": 521.0, "min_age_ma": 516.0, "longitude": 102.410278, "latitude": 24.84, "province": "Yunnan", "biological_group": "动物", "chapter_label": "第一章"}, "geometry": {"type": "Point", "coordinates": [102.410278, 24.84]}}, {"type": "Feature", "properties": {"objectid": 321, "fossil_id": 799000, "species_name": "Jiangfengia sp.", "geological_stage": "Atdabanian", "max_age_ma": 521.0, "min_age_ma": 516.0, "longitude": 102.410278, "latitude": 24.84, "province": "Yunnan", "biological_group": "动物", "chapter_label": "第一章"}, "geometry": {"type": "Point", "coordinates": [102.410278, 24.84]}}, {"type": "Feature", "properties": {"objectid": 197, "fossil_id": 798141, "species_name": "Kunmingella douvillei", "geological_stage": "Atdabanian", "max_age_ma": 521.0, "min_age_ma": 516.0, "longitude": 103.986115, "latitude": 25.719999, "province": "Yunnan", "biological_group": "动物", "chapter_label": "第一章"}, "geometry": {"type": "Point", "coordinates": [103.986115, 25.719999]}}, {"type": "Feature", "properties": {"objectid": 674, "fossil_id": 820161, "species_name": "Mafangscolex sinensis", "geological_stage": "Atdabanian", "max_age_ma": 521.0, "min_age_ma": 516.0, "longitude": 103.986115, "latitude": 25.719999, "province": "Yunnan", "biological_group": "动物", "chapter_label": "第一章"}, "geometry": {"type": "Point", "coordinates": [103.986115, 25.719999]}}, {"type": "Feature", "properties": {"objectid": 676, "fossil_id": 820163, "species_name": "Microdictyon sinicum", "geological_stage": "Atdabanian", "max_age_ma": 521.0, "min_age_ma": 516.0, "longitude": 103.986115, "latitude": 25.719999, "province": "Yunnan", "biological_group": "动物", "chapter_label": "第一章"}, "geometry": {"type": "Point", "coordinates": [103.986115, 25.719999]}}, {"type": "Feature", "properties": {"objectid": 677, "fossil_id": 820165, "species_name": "Isoxys auritus", "geological_stage": "Atdabanian", "max_age_ma": 521.0, "min_age_ma": 516.0, "longitude": 103.986115, "latitude": 25.719999, "province": "Yunnan", "biological_group": "动物", "chapter_label": "第一章"}, "geometry": {"type": "Point", "coordinates": [103.986115, 25.719999]}}, {"type": "Feature", "properties": {"objectid": 704, "fossil_id": 820192, "species_name": "Leanchoilia illecebrosa", "geological_stage": "Atdabanian", "max_age_ma": 521.0, "min_age_ma": 516.0, "longitude": 103.986115, "latitude": 25.719999, "province": "Yunnan", "biological_group": "动物", "chapter_label": "第一章"}, "geometry": {"type": "Point", "coordinates": [103.986115, 25.719999]}}, {"type": "Feature", "properties": {"objectid": 705, "fossil_id": 820193, "species_name": "Malungia laevigata", "geological_stage": "Atdabanian", "max_age_ma": 521.0, "min_age_ma": 516.0, "longitude": 103.986115, "latitude": 25.719999, "province": "Yunnan", "biological_group": "动物", "chapter_label": "第一章"}, "geometry": {"type": "Point", "coordinates": [103.986115, 25.719999]}}, {"type": "Feature", "properties": {"objectid": 707, "fossil_id": 820195, "species_name": "Naraoia spinosa", "geological_stage": "Atdabanian", "max_age_ma": 521.0, "min_age_ma": 516.0, "longitude": 103.986115, "latitude": 25.719999, "province": "Yunnan", "biological_group": "动物", "chapter_label": "第一章"}, "geometry": {"type": "Point", "coordinates": [103.986115, 25.719999]}}, {"type": "Feature", "properties": {"objectid": 722, "fossil_id": 820210, "species_name": "Wutingaspis malungensis", "geological_stage": "Atdabanian", "max_age_ma": 521.0, "min_age_ma": 516.0, "longitude": 103.986115, "latitude": 25.719999, "province": "Yunnan", "biological_group": "动物", "chapter_label": "第一章"}, "geometry": {"type": "Point", "coordinates": [103.986115, 25.719999]}}, {"type": "Feature", "properties": {"objectid": 724, "fossil_id": 820212, "species_name": "Choia hindei", "geological_stage": "Atdabanian", "max_age_ma": 521.0, "min_age_ma": 516.0, "longitude": 103.986115, "latitude": 25.719999, "province": "Yunnan", "biological_group": "动物", "chapter_label": "第一章"}, "geometry": {"type": "Point", "coordinates": [103.986115, 25.719999]}}, {"type": "Feature", "properties": {"objectid": 725, "fossil_id": 820213, "species_name": "Paraleptomitella dictyodroma", "geological_stage": "Atdabanian", "max_age_ma": 521.0, "min_age_ma": 516.0, "longitude": 103.986115, "latitude": 25.719999, "province": "Yunnan", "biological_group": "动物", "chapter_label": "第一章"}, "geometry": {"type": "Point", "coordinates": [103.986115, 25.719999]}}, {"type": "Feature", "properties": {"objectid": 727, "fossil_id": 820215, "species_name": "Porifera indet.", "geological_stage": "Atdabanian", "max_age_ma": 521.0, "min_age_ma": 516.0, "longitude": 103.986115, "latitude": 25.719999, "province": "Yunnan", "biological_group": "动物", "chapter_label": "第一章"}, "geometry": {"type": "Point", "coordinates": [103.986115, 25.719999]}}, {"type": "Feature", "properties": {"objectid": 739, "fossil_id": 820227, "species_name": "Anomalocardidae indet.", "geological_stage": "Atdabanian", "max_age_ma": 521.0, "min_age_ma": 516.0, "longitude": 103.986115, "latitude": 25.719999, "province": "Yunnan", "biological_group": "动物", "chapter_label": "第一章"}, "geometry": {"type": "Point", "coordinates": [103.986115, 25.719999]}}, {"type": "Feature", "properties": {"objectid": 741, "fossil_id": 820229, "species_name": "Burithes magnus", "geological_stage": "Atdabanian", "max_age_ma": 521.0, "min_age_ma": 516.0, "longitude": 103.986115, "latitude": 25.719999, "province": "Yunnan", "biological_group": "动物", "chapter_label": "第一章"}, "geometry": {"type": "Point", "coordinates": [103.986115, 25.719999]}}, {"type": "Feature", "properties": {"objectid": 743, "fossil_id": 821109, "species_name": "Redlichia mansuyi", "geological_stage": "Botomian", "max_age_ma": 516.0, "min_age_ma": 512.1, "longitude": 102.800003, "latitude": 24.950001, "province": "Yunnan", "biological_group": "动物", "chapter_label": "第一章"}, "geometry": {"type": "Point", "coordinates": [102.800003, 24.950001]}}, {"type": "Feature", "properties": {"objectid": 748, "fossil_id": 821114, "species_name": "Longquania bispinosa", "geological_stage": "Botomian", "max_age_ma": 516.0, "min_age_ma": 512.1, "longitude": 102.800003, "latitude": 24.950001, "province": "Yunnan", "biological_group": "动物", "chapter_label": "第一章"}, "geometry": {"type": "Point", "coordinates": [102.800003, 24.950001]}}, {"type": "Feature", "properties": {"objectid": 753, "fossil_id": 821119, "species_name": "Branchiocaris sp.", "geological_stage": "Botomian", "max_age_ma": 516.0, "min_age_ma": 512.1, "longitude": 102.800003, "latitude": 24.950001, "province": "Yunnan", "biological_group": "动物", "chapter_label": "第一章"}, "geometry": {"type": "Point", "coordinates": [102.800003, 24.950001]}}, {"type": "Feature", "properties": {"objectid": 758, "fossil_id": 821124, "species_name": "Diandongia pista", "geological_stage": "Botomian", "max_age_ma": 516.0, "min_age_ma": 512.1, "longitude": 102.800003, "latitude": 24.950001, "province": "Yunnan", "biological_group": "动物", "chapter_label": "第一章"}, "geometry": {"type": "Point", "coordinates": [102.800003, 24.950001]}}, {"type": "Feature", "properties": {"objectid": 763, "fossil_id": 821130, "species_name": "Palaeolenus lantenoisi", "geological_stage": "Botomian", "max_age_ma": 516.0, "min_age_ma": 512.1, "longitude": 102.800003, "latitude": 24.950001, "province": "Yunnan", "biological_group": "动物", "chapter_label": "第一章"}, "geometry": {"type": "Point", "coordinates": [102.800003, 24.950001]}}, {"type": "Feature", "properties": {"objectid": 769, "fossil_id": 821136, "species_name": "Heliomedusa minuta", "geological_stage": "Botomian", "max_age_ma": 516.0, "min_age_ma": 512.1, "longitude": 102.800003, "latitude": 24.950001, "province": "Yunnan", "biological_group": "动物", "chapter_label": "第一章"}, "geometry": {"type": "Point", "coordinates": [102.800003, 24.950001]}}, {"type": "Feature", "properties": {"objectid": 774, "fossil_id": 821141, "species_name": "Palaeolenus douvillei", "geological_stage": "Botomian", "max_age_ma": 516.0, "min_age_ma": 512.1, "longitude": 102.800003, "latitude": 24.950001, "province": "Yunnan", "biological_group": "动物", "chapter_label": "第一章"}, "geometry": {"type": "Point", "coordinates": [102.800003, 24.950001]}}, {"type": "Feature", "properties": {"objectid": 779, "fossil_id": 821146, "species_name": "Redlichia mai", "geological_stage": "Botomian", "max_age_ma": 516.0, "min_age_ma": 512.1, "longitude": 102.800003, "latitude": 24.950001, "province": "Yunnan", "biological_group": "动物", "chapter_label": "第一章"}, "geometry": {"type": "Point", "coordinates": [102.800003, 24.950001]}}, {"type": "Feature", "properties": {"objectid": 784, "fossil_id": 821151, "species_name": "Anomalocaris saron", "geological_stage": "Botomian", "max_age_ma": 516.0, "min_age_ma": 512.1, "longitude": 102.800003, "latitude": 24.950001, "province": "Yunnan", "biological_group": "动物", "chapter_label": "第一章"}, "geometry": {"type": "Point", "coordinates": [102.800003, 24.950001]}}, {"type": "Feature", "properties": {"objectid": 1233, "fossil_id": 1104445, "species_name": "Planolites sp.", "geological_stage": "Botomian", "max_age_ma": 516.0, "min_age_ma": 512.1, "longitude": 102.816666, "latitude": 24.933332, "province": "Yunnan", "biological_group": "动物", "chapter_label": "第一章"}, "geometry": {"type": "Point", "coordinates": [102.816666, 24.933332]}}, {"type": "Feature", "properties": {"objectid": 1238, "fossil_id": 1104450, "species_name": "Gordia sp.", "geological_stage": "Botomian", "max_age_ma": 516.0, "min_age_ma": 512.1, "longitude": 102.816666, "latitude": 24.933332, "province": "Yunnan", "biological_group": "动物", "chapter_label": "第一章"}, "geometry": {"type": "Point", "coordinates": [102.816666, 24.933332]}}, {"type": "Feature", "properties": {"objectid": 1243, "fossil_id": 1104455, "species_name": "Glockerichnus sp.", "geological_stage": "Botomian", "max_age_ma": 516.0, "min_age_ma": 512.1, "longitude": 102.816666, "latitude": 24.933332, "province": "Yunnan", "biological_group": "动物", "chapter_label": "第一章"}, "geometry": {"type": "Point", "coordinates": [102.816666, 24.933332]}}, {"type": "Feature", "properties": {"objectid": 1250, "fossil_id": 1104462, "species_name": "Paramaotianshania zijunia", "geological_stage": "Botomian", "max_age_ma": 516.0, "min_age_ma": 512.1, "longitude": 102.81694, "latitude": 24.901112, "province": "Yunnan", "biological_group": "动物", "chapter_label": "第一章"}, "geometry": {"type": "Point", "coordinates": [102.81694, 24.901112]}}, {"type": "Feature", "properties": {"objectid": 865, "fossil_id": 822109, "species_name": "Liangshanella liangshanensis", "geological_stage": "Atdabanian", "max_age_ma": 521.0, "min_age_ma": 516.0, "longitude": 102.0, "latitude": 24.0, "province": "Yunnan", "biological_group": "动物", "chapter_label": "第一章"}, "geometry": {"type": "Point", "coordinates": [102.0, 24.0]}}, {"type": "Feature", "properties": {"objectid": 868, "fossil_id": 822112, "species_name": "Trilobita indet.", "geological_stage": "Atdabanian", "max_age_ma": 521.0, "min_age_ma": 516.0, "longitude": 102.0, "latitude": 24.0, "province": "Yunnan", "biological_group": "动物", "chapter_label": "第一章"}, "geometry": {"type": "Point", "coordinates": [102.0, 24.0]}}, {"type": "Feature", "properties": {"objectid": 871, "fossil_id": 822115, "species_name": "Naraoia longicaudata", "geological_stage": "Atdabanian", "max_age_ma": 521.0, "min_age_ma": 516.0, "longitude": 102.0, "latitude": 24.0, "province": "Yunnan", "biological_group": "动物", "chapter_label": "第一章"}, "geometry": {"type": "Point", "coordinates": [102.0, 24.0]}}, {"type": "Feature", "properties": {"objectid": 875, "fossil_id": 822119, "species_name": "Isoxys paradoxus", "geological_stage": "Atdabanian", "max_age_ma": 521.0, "min_age_ma": 516.0, "longitude": 102.0, "latitude": 24.0, "province": "Yunnan", "biological_group": "动物", "chapter_label": "第一章"}, "geometry": {"type": "Point", "coordinates": [102.0, 24.0]}}, {"type": "Feature", "properties": {"objectid": 878, "fossil_id": 822122, "species_name": "Naraoia longicaudata", "geological_stage": "Atdabanian", "max_age_ma": 521.0, "min_age_ma": 516.0, "longitude": 102.0, "latitude": 24.0, "province": "Yunnan", "biological_group": "动物", "chapter_label": "第一章"}, "geometry": {"type": "Point", "coordinates": [102.0, 24.0]}}, {"type": "Feature", "properties": {"objectid": 882, "fossil_id": 822126, "species_name": "Vetulicola cuneatus", "geological_stage": "Atdabanian", "max_age_ma": 521.0, "min_age_ma": 516.0, "longitude": 102.0, "latitude": 24.0, "province": "Yunnan", "biological_group": "动物", "chapter_label": "第一章"}, "geometry": {"type": "Point", "coordinates": [102.0, 24.0]}}, {"type": "Feature", "properties": {"objectid": 885, "fossil_id": 822129, "species_name": "Heliomedusa orienta", "geological_stage": "Atdabanian", "max_age_ma": 521.0, "min_age_ma": 516.0, "longitude": 102.0, "latitude": 24.0, "province": "Yunnan", "biological_group": "动物", "chapter_label": "第一章"}, "geometry": {"type": "Point", "coordinates": [102.0, 24.0]}}, {"type": "Feature", "properties": {"objectid": 889, "fossil_id": 822133, "species_name": "Tsunyiella zhijinensis", "geological_stage": "Atdabanian", "max_age_ma": 521.0, "min_age_ma": 516.0, "longitude": 102.0, "latitude": 24.0, "province": "Yunnan", "biological_group": "动物", "chapter_label": "第一章"}, "geometry": {"type": "Point", "coordinates": [102.0, 24.0]}}, {"type": "Feature", "properties": {"objectid": 892, "fossil_id": 822137, "species_name": "Jianfengia multisegmentalis", "geological_stage": "Atdabanian", "max_age_ma": 521.0, "min_age_ma": 516.0, "longitude": 102.0, "latitude": 24.0, "province": "Yunnan", "biological_group": "动物", "chapter_label": "第一章"}, "geometry": {"type": "Point", "coordinates": [102.0, 24.0]}}, {"type": "Feature", "properties": {"objectid": 896, "fossil_id": 822141, "species_name": "Rotadiscus grandis", "geological_stage": "Atdabanian", "max_age_ma": 521.0, "min_age_ma": 516.0, "longitude": 102.0, "latitude": 24.0, "province": "Yunnan", "biological_group": "动物", "chapter_label": "第一章"}, "geometry": {"type": "Point", "coordinates": [102.0, 24.0]}}, {"type": "Feature", "properties": {"objectid": 899, "fossil_id": 822144, "species_name": "Maotianshania cylindrica", "geological_stage": "Atdabanian", "max_age_ma": 521.0, "min_age_ma": 516.0, "longitude": 102.0, "latitude": 24.0, "province": "Yunnan", "biological_group": "动物", "chapter_label": "第一章"}, "geometry": {"type": "Point", "coordinates": [102.0, 24.0]}}, {"type": "Feature", "properties": {"objectid": 903, "fossil_id": 822148, "species_name": "Paraleptomitella globula", "geological_stage": "Atdabanian", "max_age_ma": 521.0, "min_age_ma": 516.0, "longitude": 102.0, "latitude": 24.0, "province": "Yunnan", "biological_group": "动物", "chapter_label": "第一章"}, "geometry": {"type": "Point", "coordinates": [102.0, 24.0]}}, {"type": "Feature", "properties": {"objectid": 906, "fossil_id": 822151, "species_name": "Eoredlichia intermedia", "geological_stage": "Atdabanian", "max_age_ma": 521.0, "min_age_ma": 516.0, "longitude": 102.0, "latitude": 24.0, "province": "Yunnan", "biological_group": "动物", "chapter_label": "第一章"}, "geometry": {"type": "Point", "coordinates": [102.0, 24.0]}}, {"type": "Feature", "properties": {"objectid": 910, "fossil_id": 850687, "species_name": "Ocruranus subpentaedrus", "geological_stage": "Tommotian", "max_age_ma": 525.5, "min_age_ma": 521.0, "longitude": 102.566666, "latitude": 24.728333, "province": "Yunnan", "biological_group": "动物", "chapter_label": "第一章"}, "geometry": {"type": "Point", "coordinates": [102.566666, 24.728333]}}, {"type": "Feature", "properties": {"objectid": 991, "fossil_id": 869558, "species_name": "Cyrtochites pinnoides", "geological_stage": "Tommotian", "max_age_ma": 525.5, "min_age_ma": 521.0, "longitude": 102.566666, "latitude": 24.728333, "province": "Yunnan", "biological_group": "动物", "chapter_label": "第一章"}, "geometry": {"type": "Point", "coordinates": [102.566666, 24.728333]}}, {"type": "Feature", "properties": {"objectid": 998, "fossil_id": 869565, "species_name": "Eohalobia diandongensis", "geological_stage": "Tommotian", "max_age_ma": 525.5, "min_age_ma": 521.0, "longitude": 102.566666, "latitude": 24.728333, "province": "Yunnan", "biological_group": "动物", "chapter_label": "第一章"}, "geometry": {"type": "Point", "coordinates": [102.566666, 24.728333]}}, {"type": "Feature", "properties": {"objectid": 1005, "fossil_id": 869716, "species_name": "? Turcutheca sp.", "geological_stage": "Nangaoian", "max_age_ma": 521.0, "min_age_ma": 516.0, "longitude": 102.566666, "latitude": 24.728333, "province": "Yunnan", "biological_group": "动物", "chapter_label": "第一章"}, "geometry": {"type": "Point", "coordinates": [102.566666, 24.728333]}}, {"type": "Feature", "properties": {"objectid": 1013, "fossil_id": 869724, "species_name": "Tannuolina zhangwentangi n. sp.", "geological_stage": "Nangaoian", "max_age_ma": 521.0, "min_age_ma": 516.0, "longitude": 102.566666, "latitude": 24.728333, "province": "Yunnan", "biological_group": "动物", "chapter_label": "第一章"}, "geometry": {"type": "Point", "coordinates": [102.566666, 24.728333]}}, {"type": "Feature", "properties": {"objectid": 1050, "fossil_id": 1045315, "species_name": "Wutingaspis tingi", "geological_stage": "Nangaoian", "max_age_ma": 521.0, "min_age_ma": 514.5, "longitude": 102.550003, "latitude": 24.716667, "province": "Yunnan", "biological_group": "动物", "chapter_label": "第一章"}, "geometry": {"type": "Point", "coordinates": [102.550003, 24.716667]}}, {"type": "Feature", "properties": {"objectid": 1057, "fossil_id": 1045326, "species_name": "Eoredlichia (Pararedlichia) carinata", "geological_stage": "Nangaoian", "max_age_ma": 521.0, "min_age_ma": 514.5, "longitude": 102.550003, "latitude": 24.716667, "province": "Yunnan", "biological_group": "动物", "chapter_label": "第一章"}, "geometry": {"type": "Point", "coordinates": [102.550003, 24.716667]}}, {"type": "Feature", "properties": {"objectid": 1261, "fossil_id": 1288209, "species_name": "Eohalobia diandongensis", "geological_stage": "Tommotian", "max_age_ma": 525.5, "min_age_ma": 521.0, "longitude": 102.566666, "latitude": 24.728333, "province": "Yunnan", "biological_group": "动物", "chapter_label": "第一章"}, "geometry": {"type": "Point", "coordinates": [102.566666, 24.728333]}}, {"type": "Feature", "properties": {"objectid": 1268, "fossil_id": 1288216, "species_name": "Paragloborilus subglobosus", "geological_stage": "Tommotian", "max_age_ma": 525.5, "min_age_ma": 521.0, "longitude": 102.566666, "latitude": 24.728333, "province": "Yunnan", "biological_group": "动物", "chapter_label": "第一章"}, "geometry": {"type": "Point", "coordinates": [102.566666, 24.728333]}}, {"type": "Feature", "properties": {"objectid": 1275, "fossil_id": 1288223, "species_name": "Pteromus jungus", "geological_stage": "Tommotian", "max_age_ma": 525.5, "min_age_ma": 521.0, "longitude": 102.566666, "latitude": 24.728333, "province": "Yunnan", "biological_group": "动物", "chapter_label": "第一章"}, "geometry": {"type": "Point", "coordinates": [102.566666, 24.728333]}}, {"type": "Feature", "properties": {"objectid": 1283, "fossil_id": 1288231, "species_name": "Chancelloria symmetrica", "geological_stage": "Tommotian", "max_age_ma": 525.5, "min_age_ma": 521.0, "longitude": 102.566666, "latitude": 24.728333, "province": "Yunnan", "biological_group": "动物", "chapter_label": "第一章"}, "geometry": {"type": "Point", "coordinates": [102.566666, 24.728333]}}, {"type": "Feature", "properties": {"objectid": 1290, "fossil_id": 1288238, "species_name": "Exilitheca fangchengensis", "geological_stage": "Tommotian", "max_age_ma": 525.5, "min_age_ma": 521.0, "longitude": 102.566666, "latitude": 24.728333, "province": "Yunnan", "biological_group": "动物", "chapter_label": "第一章"}, "geometry": {"type": "Point", "coordinates": [102.566666, 24.728333]}}, {"type": "Feature", "properties": {"objectid": 1297, "fossil_id": 1288245, "species_name": "Purella arcana", "geological_stage": "Tommotian", "max_age_ma": 525.5, "min_age_ma": 521.0, "longitude": 102.566666, "latitude": 24.728333, "province": "Yunnan", "biological_group": "动物", "chapter_label": "第一章"}, "geometry": {"type": "Point", "coordinates": [102.566666, 24.728333]}}, {"type": "Feature", "properties": {"objectid": 912, "fossil_id": 869458, "species_name": "Fuxianhuia protensa", "geological_stage": "Atdabanian", "max_age_ma": 521.0, "min_age_ma": 516.0, "longitude": 102.966667, "latitude": 24.65, "province": "Yunnan", "biological_group": "动物", "chapter_label": "第一章"}, "geometry": {"type": "Point", "coordinates": [102.966667, 24.65]}}, {"type": "Feature", "properties": {"objectid": 918, "fossil_id": 869464, "species_name": "Naraoia longicaudata", "geological_stage": "Atdabanian", "max_age_ma": 521.0, "min_age_ma": 516.0, "longitude": 102.966667, "latitude": 24.65, "province": "Yunnan", "biological_group": "动物", "chapter_label": "第一章"}, "geometry": {"type": "Point", "coordinates": [102.966667, 24.65]}}, {"type": "Feature", "properties": {"objectid": 925, "fossil_id": 869471, "species_name": "Skioldia aldna n. gen. n. sp.", "geological_stage": "Atdabanian", "max_age_ma": 521.0, "min_age_ma": 516.0, "longitude": 102.966667, "latitude": 24.65, "province": "Yunnan", "biological_group": "动物", "chapter_label": "第一章"}, "geometry": {"type": "Point", "coordinates": [102.966667, 24.65]}}, {"type": "Feature", "properties": {"objectid": 932, "fossil_id": 869478, "species_name": "Naraoia longicaudata", "geological_stage": "Atdabanian", "max_age_ma": 521.0, "min_age_ma": 516.0, "longitude": 102.966667, "latitude": 24.65, "province": "Yunnan", "biological_group": "动物", "chapter_label": "第一章"}, "geometry": {"type": "Point", "coordinates": [102.966667, 24.65]}}, {"type": "Feature", "properties": {"objectid": 939, "fossil_id": 869485, "species_name": "Fuxianhuia protensa", "geological_stage": "Atdabanian", "max_age_ma": 521.0, "min_age_ma": 516.0, "longitude": 102.98333, "latitude": 24.683332, "province": "Yunnan", "biological_group": "动物", "chapter_label": "第一章"}, "geometry": {"type": "Point", "coordinates": [102.98333, 24.683332]}}, {"type": "Feature", "properties": {"objectid": 946, "fossil_id": 869492, "species_name": "Retifacies abnormalis", "geological_stage": "Atdabanian", "max_age_ma": 521.0, "min_age_ma": 516.0, "longitude": 102.98333, "latitude": 24.683332, "province": "Yunnan", "biological_group": "动物", "chapter_label": "第一章"}, "geometry": {"type": "Point", "coordinates": [102.98333, 24.683332]}}, {"type": "Feature", "properties": {"objectid": 953, "fossil_id": 869499, "species_name": "Kuamaia lata", "geological_stage": "Atdabanian", "max_age_ma": 521.0, "min_age_ma": 516.0, "longitude": 102.949997, "latitude": 24.633333, "province": "Yunnan", "biological_group": "动物", "chapter_label": "第一章"}, "geometry": {"type": "Point", "coordinates": [102.949997, 24.633333]}}, {"type": "Feature", "properties": {"objectid": 960, "fossil_id": 869506, "species_name": "Leanchoilia illecebrosa", "geological_stage": "Atdabanian", "max_age_ma": 521.0, "min_age_ma": 516.0, "longitude": 102.966667, "latitude": 24.65, "province": "Yunnan", "biological_group": "动物", "chapter_label": "第一章"}, "geometry": {"type": "Point", "coordinates": [102.966667, 24.65]}}, {"type": "Feature", "properties": {"objectid": 967, "fossil_id": 869513, "species_name": "Naraoia longicaudata", "geological_stage": "Atdabanian", "max_age_ma": 521.0, "min_age_ma": 516.0, "longitude": 102.966667, "latitude": 24.65, "province": "Yunnan", "biological_group": "动物", "chapter_label": "第一章"}, "geometry": {"type": "Point", "coordinates": [102.966667, 24.65]}}, {"type": "Feature", "properties": {"objectid": 974, "fossil_id": 869520, "species_name": "Naraoia spinosa", "geological_stage": "Atdabanian", "max_age_ma": 521.0, "min_age_ma": 516.0, "longitude": 102.966667, "latitude": 24.65, "province": "Yunnan", "biological_group": "动物", "chapter_label": "第一章"}, "geometry": {"type": "Point", "coordinates": [102.966667, 24.65]}}, {"type": "Feature", "properties": {"objectid": 1017, "fossil_id": 999120, "species_name": "Triticispongia diagonata", "geological_stage": "Atdabanian", "max_age_ma": 521.0, "min_age_ma": 516.0, "longitude": 102.98333, "latitude": 24.683332, "province": "Yunnan", "biological_group": "动物", "chapter_label": "第一章"}, "geometry": {"type": "Point", "coordinates": [102.98333, 24.683332]}}, {"type": "Feature", "properties": {"objectid": 1024, "fossil_id": 1002777, "species_name": "Leptomitella conica n. sp.", "geological_stage": "Atdabanian", "max_age_ma": 521.0, "min_age_ma": 516.0, "longitude": 102.966667, "latitude": 24.65, "province": "Yunnan", "biological_group": "动物", "chapter_label": "第一章"}, "geometry": {"type": "Point", "coordinates": [102.966667, 24.65]}}, {"type": "Feature", "properties": {"objectid": 1031, "fossil_id": 1002784, "species_name": "Leptomitus teretiusculus", "geological_stage": "Atdabanian", "max_age_ma": 521.0, "min_age_ma": 516.0, "longitude": 102.966667, "latitude": 24.65, "province": "Yunnan", "biological_group": "动物", "chapter_label": "第一章"}, "geometry": {"type": "Point", "coordinates": [102.966667, 24.65]}}, {"type": "Feature", "properties": {"objectid": 981, "fossil_id": 869527, "species_name": "Chengjiangocaris longiformis", "geological_stage": "Atdabanian", "max_age_ma": 521.0, "min_age_ma": 516.0, "longitude": 102.949997, "latitude": 24.716667, "province": "Yunnan", "biological_group": "动物", "chapter_label": "第一章"}, "geometry": {"type": "Point", "coordinates": [102.949997, 24.716667]}}, {"type": "Feature", "properties": {"objectid": 982, "fossil_id": 869528, "species_name": "Canadaspis laevigata", "geological_stage": "Atdabanian", "max_age_ma": 521.0, "min_age_ma": 516.0, "longitude": 102.949997, "latitude": 24.716667, "province": "Yunnan", "biological_group": "动物", "chapter_label": "第一章"}, "geometry": {"type": "Point", "coordinates": [102.949997, 24.716667]}}, {"type": "Feature", "properties": {"objectid": 983, "fossil_id": 869529, "species_name": "Leanchoilia illecebrosa", "geological_stage": "Atdabanian", "max_age_ma": 521.0, "min_age_ma": 516.0, "longitude": 102.949997, "latitude": 24.716667, "province": "Yunnan", "biological_group": "动物", "chapter_label": "第一章"}, "geometry": {"type": "Point", "coordinates": [102.949997, 24.716667]}}, {"type": "Feature", "properties": {"objectid": 984, "fossil_id": 869530, "species_name": "Naraoia longicaudata", "geological_stage": "Atdabanian", "max_age_ma": 521.0, "min_age_ma": 516.0, "longitude": 102.949997, "latitude": 24.716667, "province": "Yunnan", "biological_group": "动物", "chapter_label": "第一章"}, "geometry": {"type": "Point", "coordinates": [102.949997, 24.716667]}}, {"type": "Feature", "properties": {"objectid": 985, "fossil_id": 869531, "species_name": "Naraoia spinosa", "geological_stage": "Atdabanian", "max_age_ma": 521.0, "min_age_ma": 516.0, "longitude": 102.949997, "latitude": 24.716667, "province": "Yunnan", "biological_group": "动物", "chapter_label": "第一章"}, "geometry": {"type": "Point", "coordinates": [102.949997, 24.716667]}}, {"type": "Feature", "properties": {"objectid": 1700, "fossil_id": 1615854, "species_name": "Vauxia paraleioia n. sp.", "geological_stage": "Atdabanian", "max_age_ma": 521.0, "min_age_ma": 516.0, "longitude": 102.949997, "latitude": 24.716667, "province": "Yunnan", "biological_group": "动物", "chapter_label": "第一章"}, "geometry": {"type": "Point", "coordinates": [102.949997, 24.716667]}}, {"type": "Feature", "properties": {"objectid": 1040, "fossil_id": 1042240, "species_name": "Hongshiyanaspis yiliangensis n. gen. n. sp.", "geological_stage": "Nangaoian", "max_age_ma": 521.0, "min_age_ma": 514.5, "longitude": 103.133331, "latitude": 24.9, "province": "Yunnan", "biological_group": "动物", "chapter_label": "第一章"}, "geometry": {"type": "Point", "coordinates": [103.133331, 24.9]}}, {"type": "Feature", "properties": {"objectid": 1043, "fossil_id": 1043294, "species_name": "Xiaomajiella planimarginis n. gen. n. sp.", "geological_stage": "Duyunian", "max_age_ma": 514.5, "min_age_ma": 506.5, "longitude": 103.133331, "latitude": 24.9, "province": "Yunnan", "biological_group": "动物", "chapter_label": "第一章"}, "geometry": {"type": "Point", "coordinates": [103.133331, 24.9]}}, {"type": "Feature", "properties": {"objectid": 1041, "fossil_id": 1042241, "species_name": "Fuminaspis yunnanensis n. gen.", "geological_stage": "Nangaoian", "max_age_ma": 521.0, "min_age_ma": 514.5, "longitude": 102.51667, "latitude": 25.216667, "province": "Yunnan", "biological_group": "动物", "chapter_label": "第一章"}, "geometry": {"type": "Point", "coordinates": [102.51667, 25.216667]}}, {"type": "Feature", "properties": {"objectid": 1042, "fossil_id": 1042243, "species_name": "Malongocephalus yunnanensis n. gen. n. sp.", "geological_stage": "Nangaoian", "max_age_ma": 521.0, "min_age_ma": 514.5, "longitude": 103.533333, "latitude": 25.4, "province": "Yunnan", "biological_group": "动物", "chapter_label": "第一章"}, "geometry": {"type": "Point", "coordinates": [103.533333, 25.4]}}, {"type": "Feature", "properties": {"objectid": 1061, "fossil_id": 1068839, "species_name": "Kunmingella douvillei", "geological_stage": "Nangaoian", "max_age_ma": 521.0, "min_age_ma": 514.5, "longitude": 103.5, "latitude": 25.333332, "province": "Yunnan", "biological_group": "动物", "chapter_label": "第一章"}, "geometry": {"type": "Point", "coordinates": [103.5, 25.333332]}}, {"type": "Feature", "properties": {"objectid": 1064, "fossil_id": 1068842, "species_name": "Malungia laevigata", "geological_stage": "Nangaoian", "max_age_ma": 521.0, "min_age_ma": 514.5, "longitude": 103.5, "latitude": 25.333332, "province": "Yunnan", "biological_group": "动物", "chapter_label": "第一章"}, "geometry": {"type": "Point", "coordinates": [103.5, 25.333332]}}, {"type": "Feature", "properties": {"objectid": 1067, "fossil_id": 1068845, "species_name": "Isoxys auritus", "geological_stage": "Nangaoian", "max_age_ma": 521.0, "min_age_ma": 514.5, "longitude": 103.5, "latitude": 25.333332, "province": "Yunnan", "biological_group": "动物", "chapter_label": "第一章"}, "geometry": {"type": "Point", "coordinates": [103.5, 25.333332]}}, {"type": "Feature", "properties": {"objectid": 1070, "fossil_id": 1068849, "species_name": "Isoxys curvirostratus", "geological_stage": "Nangaoian", "max_age_ma": 521.0, "min_age_ma": 514.5, "longitude": 103.5, "latitude": 25.333332, "province": "Yunnan", "biological_group": "动物", "chapter_label": "第一章"}, "geometry": {"type": "Point", "coordinates": [103.5, 25.333332]}}, {"type": "Feature", "properties": {"objectid": 1073, "fossil_id": 1068852, "species_name": "Amplectobelua symbrachiata", "geological_stage": "Nangaoian", "max_age_ma": 521.0, "min_age_ma": 514.5, "longitude": 103.5, "latitude": 25.333332, "province": "Yunnan", "biological_group": "动物", "chapter_label": "第一章"}, "geometry": {"type": "Point", "coordinates": [103.5, 25.333332]}}, {"type": "Feature", "properties": {"objectid": 1076, "fossil_id": 1068855, "species_name": "Archotuba conoidalis", "geological_stage": "Nangaoian", "max_age_ma": 521.0, "min_age_ma": 514.5, "longitude": 103.5, "latitude": 25.333332, "province": "Yunnan", "biological_group": "动物", "chapter_label": "第一章"}, "geometry": {"type": "Point", "coordinates": [103.5, 25.333332]}}, {"type": "Feature", "properties": {"objectid": 1079, "fossil_id": 1068858, "species_name": "Isoxys paradoxus", "geological_stage": "Nangaoian", "max_age_ma": 521.0, "min_age_ma": 514.5, "longitude": 103.5, "latitude": 25.333332, "province": "Yunnan", "biological_group": "动物", "chapter_label": "第一章"}, "geometry": {"type": "Point", "coordinates": [103.5, 25.333332]}}, {"type": "Feature", "properties": {"objectid": 1082, "fossil_id": 1068861, "species_name": "Cricocosmia jinningensis", "geological_stage": "Nangaoian", "max_age_ma": 521.0, "min_age_ma": 514.5, "longitude": 103.5, "latitude": 25.333332, "province": "Yunnan", "biological_group": "动物", "chapter_label": "第一章"}, "geometry": {"type": "Point", "coordinates": [103.5, 25.333332]}}, {"type": "Feature", "properties": {"objectid": 1085, "fossil_id": 1068864, "species_name": "Leanchoilia illecebrosa", "geological_stage": "Nangaoian", "max_age_ma": 521.0, "min_age_ma": 514.5, "longitude": 103.5, "latitude": 25.333332, "province": "Yunnan", "biological_group": "动物", "chapter_label": "第一章"}, "geometry": {"type": "Point", "coordinates": [103.5, 25.333332]}}, {"type": "Feature", "properties": {"objectid": 1088, "fossil_id": 1068867, "species_name": "Malongella bituberculata", "geological_stage": "Nangaoian", "max_age_ma": 521.0, "min_age_ma": 514.5, "longitude": 103.5, "latitude": 25.333332, "province": "Yunnan", "biological_group": "动物", "chapter_label": "第一章"}, "geometry": {"type": "Point", "coordinates": [103.5, 25.333332]}}, {"type": "Feature", "properties": {"objectid": 1091, "fossil_id": 1068870, "species_name": "Skioldia aldna", "geological_stage": "Nangaoian", "max_age_ma": 521.0, "min_age_ma": 514.5, "longitude": 103.5, "latitude": 25.333332, "province": "Yunnan", "biological_group": "动物", "chapter_label": "第一章"}, "geometry": {"type": "Point", "coordinates": [103.5, 25.333332]}}, {"type": "Feature", "properties": {"objectid": 1094, "fossil_id": 1068873, "species_name": "Choia ? hindei", "geological_stage": "Nangaoian", "max_age_ma": 521.0, "min_age_ma": 514.5, "longitude": 103.5, "latitude": 25.333332, "province": "Yunnan", "biological_group": "动物", "chapter_label": "第一章"}, "geometry": {"type": "Point", "coordinates": [103.5, 25.333332]}}, {"type": "Feature", "properties": {"objectid": 1097, "fossil_id": 1068876, "species_name": "Petalilium ? latus", "geological_stage": "Nangaoian", "max_age_ma": 521.0, "min_age_ma": 514.5, "longitude": 103.5, "latitude": 25.333332, "province": "Yunnan", "biological_group": "动物", "chapter_label": "第一章"}, "geometry": {"type": "Point", "coordinates": [103.5, 25.333332]}}, {"type": "Feature", "properties": {"objectid": 1101, "fossil_id": 1068880, "species_name": "Diandongia pista", "geological_stage": "Nangaoian", "max_age_ma": 521.0, "min_age_ma": 514.5, "longitude": 102.400002, "latitude": 25.549999, "province": "Yunnan", "biological_group": "动物", "chapter_label": "第一章"}, "geometry": {"type": "Point", "coordinates": [102.400002, 25.549999]}}, {"type": "Feature", "properties": {"objectid": 1102, "fossil_id": 1068881, "species_name": "Wutingaspis tingi", "geological_stage": "Nangaoian", "max_age_ma": 521.0, "min_age_ma": 514.5, "longitude": 102.400002, "latitude": 25.549999, "province": "Yunnan", "biological_group": "动物", "chapter_label": "第一章"}, "geometry": {"type": "Point", "coordinates": [102.400002, 25.549999]}}, {"type": "Feature", "properties": {"objectid": 1103, "fossil_id": 1068882, "species_name": "Ambrolinevitus maximus", "geological_stage": "Nangaoian", "max_age_ma": 521.0, "min_age_ma": 514.5, "longitude": 102.400002, "latitude": 25.549999, "province": "Yunnan", "biological_group": "动物", "chapter_label": "第一章"}, "geometry": {"type": "Point", "coordinates": [102.400002, 25.549999]}}, {"type": "Feature", "properties": {"objectid": 1104, "fossil_id": 1068883, "species_name": "Ambrolinevitus ventricosus", "geological_stage": "Nangaoian", "max_age_ma": 521.0, "min_age_ma": 514.5, "longitude": 102.400002, "latitude": 25.549999, "province": "Yunnan", "biological_group": "动物", "chapter_label": "第一章"}, "geometry": {"type": "Point", "coordinates": [102.400002, 25.549999]}}, {"type": "Feature", "properties": {"objectid": 1106, "fossil_id": 1068885, "species_name": "Kunmingella douvillei", "geological_stage": "Nangaoian", "max_age_ma": 521.0, "min_age_ma": 514.5, "longitude": 102.400002, "latitude": 25.549999, "province": "Yunnan", "biological_group": "动物", "chapter_label": "第一章"}, "geometry": {"type": "Point", "coordinates": [102.400002, 25.549999]}}, {"type": "Feature", "properties": {"objectid": 1107, "fossil_id": 1068886, "species_name": "Kunyangella cheni", "geological_stage": "Nangaoian", "max_age_ma": 521.0, "min_age_ma": 514.5, "longitude": 102.400002, "latitude": 25.549999, "province": "Yunnan", "biological_group": "动物", "chapter_label": "第一章"}, "geometry": {"type": "Point", "coordinates": [102.400002, 25.549999]}}, {"type": "Feature", "properties": {"objectid": 1108, "fossil_id": 1068887, "species_name": "Isoxys auritus", "geological_stage": "Nangaoian", "max_age_ma": 521.0, "min_age_ma": 514.5, "longitude": 102.400002, "latitude": 25.549999, "province": "Yunnan", "biological_group": "动物", "chapter_label": "第一章"}, "geometry": {"type": "Point", "coordinates": [102.400002, 25.549999]}}, {"type": "Feature", "properties": {"objectid": 1110, "fossil_id": 1068889, "species_name": "Waptia ovata", "geological_stage": "Nangaoian", "max_age_ma": 521.0, "min_age_ma": 514.5, "longitude": 102.400002, "latitude": 25.549999, "province": "Yunnan", "biological_group": "动物", "chapter_label": "第一章"}, "geometry": {"type": "Point", "coordinates": [102.400002, 25.549999]}}, {"type": "Feature", "properties": {"objectid": 1111, "fossil_id": 1068890, "species_name": "Mafangscolex sinensis", "geological_stage": "Nangaoian", "max_age_ma": 521.0, "min_age_ma": 514.5, "longitude": 102.400002, "latitude": 25.549999, "province": "Yunnan", "biological_group": "动物", "chapter_label": "第一章"}, "geometry": {"type": "Point", "coordinates": [102.400002, 25.549999]}}, {"type": "Feature", "properties": {"objectid": 1112, "fossil_id": 1068891, "species_name": "Wudingella binodosa", "geological_stage": "Nangaoian", "max_age_ma": 521.0, "min_age_ma": 514.5, "longitude": 102.400002, "latitude": 25.549999, "province": "Yunnan", "biological_group": "动物", "chapter_label": "第一章"}, "geometry": {"type": "Point", "coordinates": [102.400002, 25.549999]}}, {"type": "Feature", "properties": {"objectid": 1114, "fossil_id": 1068893, "species_name": "Yunnanocephalus yunnanensis", "geological_stage": "Nangaoian", "max_age_ma": 521.0, "min_age_ma": 514.5, "longitude": 102.400002, "latitude": 25.549999, "province": "Yunnan", "biological_group": "动物", "chapter_label": "第一章"}, "geometry": {"type": "Point", "coordinates": [102.400002, 25.549999]}}, {"type": "Feature", "properties": {"objectid": 1115, "fossil_id": 1068894, "species_name": "Naraoia longicaudata", "geological_stage": "Nangaoian", "max_age_ma": 521.0, "min_age_ma": 514.5, "longitude": 102.400002, "latitude": 25.549999, "province": "Yunnan", "biological_group": "动物", "chapter_label": "第一章"}, "geometry": {"type": "Point", "coordinates": [102.400002, 25.549999]}}, {"type": "Feature", "properties": {"objectid": 1116, "fossil_id": 1068895, "species_name": "Microdictyon sinicum", "geological_stage": "Nangaoian", "max_age_ma": 521.0, "min_age_ma": 514.5, "longitude": 102.400002, "latitude": 25.549999, "province": "Yunnan", "biological_group": "动物", "chapter_label": "第一章"}, "geometry": {"type": "Point", "coordinates": [102.400002, 25.549999]}}, {"type": "Feature", "properties": {"objectid": 1118, "fossil_id": 1068897, "species_name": "Kunmingella douvillei", "geological_stage": "Nangaoian", "max_age_ma": 521.0, "min_age_ma": 514.5, "longitude": 102.583336, "latitude": 24.766666, "province": "Yunnan", "biological_group": "动物", "chapter_label": "第一章"}, "geometry": {"type": "Point", "coordinates": [102.583336, 24.766666]}}, {"type": "Feature", "properties": {"objectid": 1156, "fossil_id": 1068936, "species_name": "Naraoia spinosa", "geological_stage": "Nangaoian", "max_age_ma": 521.0, "min_age_ma": 514.5, "longitude": 102.583336, "latitude": 24.766666, "province": "Yunnan", "biological_group": "动物", "chapter_label": "第一章"}, "geometry": {"type": "Point", "coordinates": [102.583336, 24.766666]}}, {"type": "Feature", "properties": {"objectid": 1195, "fossil_id": 1068977, "species_name": "Paucipodia haikouensis", "geological_stage": "Nangaoian", "max_age_ma": 521.0, "min_age_ma": 514.5, "longitude": 102.583336, "latitude": 24.766666, "province": "Yunnan", "biological_group": "动物", "chapter_label": "第一章"}, "geometry": {"type": "Point", "coordinates": [102.583336, 24.766666]}}, {"type": "Feature", "properties": {"objectid": 1307, "fossil_id": 1405514, "species_name": "Leanchoilia illecebrosa", "geological_stage": "Nangaoian", "max_age_ma": 521.0, "min_age_ma": 514.5, "longitude": 102.586113, "latitude": 24.772223, "province": "Yunnan", "biological_group": "动物", "chapter_label": "第一章"}, "geometry": {"type": "Point", "coordinates": [102.586113, 24.772223]}}, {"type": "Feature", "properties": {"objectid": 1346, "fossil_id": 1405561, "species_name": "Saetaspongia densa", "geological_stage": "Nangaoian", "max_age_ma": 521.0, "min_age_ma": 514.5, "longitude": 102.586113, "latitude": 24.772223, "province": "Yunnan", "biological_group": "动物", "chapter_label": "第一章"}, "geometry": {"type": "Point", "coordinates": [102.586113, 24.772223]}}, {"type": "Feature", "properties": {"objectid": 1384, "fossil_id": 1405601, "species_name": "Lingulellotreta malongensis", "geological_stage": "Nangaoian", "max_age_ma": 521.0, "min_age_ma": 514.5, "longitude": 102.586113, "latitude": 24.772223, "province": "Yunnan", "biological_group": "动物", "chapter_label": "第一章"}, "geometry": {"type": "Point", "coordinates": [102.586113, 24.772223]}}, {"type": "Feature", "properties": {"objectid": 1423, "fossil_id": 1405640, "species_name": "Yunnanocephalus yunnanensis", "geological_stage": "Nangaoian", "max_age_ma": 521.0, "min_age_ma": 514.5, "longitude": 102.586113, "latitude": 24.772223, "province": "Yunnan", "biological_group": "动物", "chapter_label": "第一章"}, "geometry": {"type": "Point", "coordinates": [102.586113, 24.772223]}}, {"type": "Feature", "properties": {"objectid": 1462, "fossil_id": 1405679, "species_name": "Ercaicunia multinodosa", "geological_stage": "Nangaoian", "max_age_ma": 521.0, "min_age_ma": 514.5, "longitude": 102.586113, "latitude": 24.772223, "province": "Yunnan", "biological_group": "动物", "chapter_label": "第一章"}, "geometry": {"type": "Point", "coordinates": [102.586113, 24.772223]}}, {"type": "Feature", "properties": {"objectid": 1501, "fossil_id": 1405726, "species_name": "Sicyphorus rara", "geological_stage": "Nangaoian", "max_age_ma": 521.0, "min_age_ma": 514.5, "longitude": 102.586113, "latitude": 24.772223, "province": "Yunnan", "biological_group": "动物", "chapter_label": "第一章"}, "geometry": {"type": "Point", "coordinates": [102.586113, 24.772223]}}, {"type": "Feature", "properties": {"objectid": 1539, "fossil_id": 1408800, "species_name": "Amplectobelua symbrachiata", "geological_stage": "Nangaoian", "max_age_ma": 521.0, "min_age_ma": 514.5, "longitude": 102.586113, "latitude": 24.772223, "province": "Yunnan", "biological_group": "动物", "chapter_label": "第一章"}, "geometry": {"type": "Point", "coordinates": [102.586113, 24.772223]}}, {"type": "Feature", "properties": {"objectid": 1578, "fossil_id": 1408839, "species_name": "Amplectobelua symbrachiata", "geological_stage": "Nangaoian", "max_age_ma": 521.0, "min_age_ma": 514.5, "longitude": 102.586113, "latitude": 24.772223, "province": "Yunnan", "biological_group": "动物", "chapter_label": "第一章"}, "geometry": {"type": "Point", "coordinates": [102.586113, 24.772223]}}, {"type": "Feature", "properties": {"objectid": 1617, "fossil_id": 1408878, "species_name": "Isoxys auritus", "geological_stage": "Nangaoian", "max_age_ma": 521.0, "min_age_ma": 514.5, "longitude": 102.586113, "latitude": 24.772223, "province": "Yunnan", "biological_group": "动物", "chapter_label": "第一章"}, "geometry": {"type": "Point", "coordinates": [102.586113, 24.772223]}}, {"type": "Feature", "properties": {"objectid": 1656, "fossil_id": 1408917, "species_name": "Burithes yunnanensis", "geological_stage": "Nangaoian", "max_age_ma": 521.0, "min_age_ma": 514.5, "longitude": 102.586113, "latitude": 24.772223, "province": "Yunnan", "biological_group": "动物", "chapter_label": "第一章"}, "geometry": {"type": "Point", "coordinates": [102.586113, 24.772223]}}, {"type": "Feature", "properties": {"objectid": 1232, "fossil_id": 1096501, "species_name": "Cotyledion tylodes", "geological_stage": "Nangaoian", "max_age_ma": 521.0, "min_age_ma": 514.5, "longitude": 102.489998, "latitude": 24.695, "province": "Yunnan", "biological_group": "动物", "chapter_label": "第一章"}, "geometry": {"type": "Point", "coordinates": [102.489998, 24.695]}}, {"type": "Feature", "properties": {"objectid": 1689, "fossil_id": 1592417, "species_name": "Gemmactena actinala", "geological_stage": "Stage 3", "max_age_ma": 521.0, "min_age_ma": 514.5, "longitude": 102.491943, "latitude": 24.69389, "province": "Yunnan", "biological_group": "动物", "chapter_label": "第一章"}, "geometry": {"type": "Point", "coordinates": [102.491943, 24.69389]}}, {"type": "Feature", "properties": {"objectid": 1690, "fossil_id": 1592418, "species_name": "Thaumactena ensis", "geological_stage": "Stage 3", "max_age_ma": 521.0, "min_age_ma": 514.5, "longitude": 102.491943, "latitude": 24.69389, "province": "Yunnan", "biological_group": "动物", "chapter_label": "第一章"}, "geometry": {"type": "Point", "coordinates": [102.491943, 24.69389]}}, {"type": "Feature", "properties": {"objectid": 1691, "fossil_id": 1592419, "species_name": "Batofasciculus ramificans", "geological_stage": "Stage 3", "max_age_ma": 521.0, "min_age_ma": 514.5, "longitude": 102.491943, "latitude": 24.69389, "province": "Yunnan", "biological_group": "动物", "chapter_label": "第一章"}, "geometry": {"type": "Point", "coordinates": [102.491943, 24.69389]}}, {"type": "Feature", "properties": {"objectid": 1692, "fossil_id": 1592420, "species_name": "Maotianoascus octonarius", "geological_stage": "Stage 3", "max_age_ma": 521.0, "min_age_ma": 514.5, "longitude": 102.491943, "latitude": 24.69389, "province": "Yunnan", "biological_group": "动物", "chapter_label": "第一章"}, "geometry": {"type": "Point", "coordinates": [102.491943, 24.69389]}}, {"type": "Feature", "properties": {"objectid": 1693, "fossil_id": 1592421, "species_name": "Trigoides aclis", "geological_stage": "Stage 3", "max_age_ma": 521.0, "min_age_ma": 514.5, "longitude": 102.491943, "latitude": 24.69389, "province": "Yunnan", "biological_group": "动物", "chapter_label": "第一章"}, "geometry": {"type": "Point", "coordinates": [102.491943, 24.69389]}}, {"type": "Feature", "properties": {"objectid": 1717, "fossil_id": 1654462, "species_name": "Antennacanthopodia gracilis n. gen. n. sp.", "geological_stage": "Nangaoian", "max_age_ma": 521.0, "min_age_ma": 514.5, "longitude": 102.489998, "latitude": 24.695, "province": "Yunnan", "biological_group": "动物", "chapter_label": "第一章"}, "geometry": {"type": "Point", "coordinates": [102.489998, 24.695]}}, {"type": "Feature", "properties": {"objectid": 1720, "fossil_id": 1654584, "species_name": "Parvibellus atavus n. gen. n. sp.", "geological_stage": "Nangaoian", "max_age_ma": 521.0, "min_age_ma": 514.5, "longitude": 102.489998, "latitude": 24.695, "province": "Yunnan", "biological_group": "动物", "chapter_label": "第一章"}, "geometry": {"type": "Point", "coordinates": [102.489998, 24.695]}}, {"type": "Feature", "properties": {"objectid": 1725, "fossil_id": 1657002, "species_name": "Calathites spinalis", "geological_stage": "Stage 3", "max_age_ma": 521.0, "min_age_ma": 514.5, "longitude": 102.489998, "latitude": 24.695, "province": "Yunnan", "biological_group": "动物", "chapter_label": "第一章"}, "geometry": {"type": "Point", "coordinates": [102.489998, 24.695]}}, {"type": "Feature", "properties": {"objectid": 1728, "fossil_id": 1660393, "species_name": "Iotuba chengjiangensis", "geological_stage": "Nangaoian", "max_age_ma": 521.0, "min_age_ma": 514.5, "longitude": 102.489998, "latitude": 24.695, "province": "Yunnan", "biological_group": "动物", "chapter_label": "第一章"}, "geometry": {"type": "Point", "coordinates": [102.489998, 24.695]}}, {"type": "Feature", "properties": {"objectid": 1729, "fossil_id": 1660394, "species_name": "Iotuba chengjiangensis", "geological_stage": "Stage 3", "max_age_ma": 521.0, "min_age_ma": 514.5, "longitude": 102.491943, "latitude": 24.69389, "province": "Yunnan", "biological_group": "动物", "chapter_label": "第一章"}, "geometry": {"type": "Point", "coordinates": [102.491943, 24.69389]}}, {"type": "Feature", "properties": {"objectid": 1248, "fossil_id": 1104460, "species_name": "Yunnanoscolex magnus", "geological_stage": "Botomian", "max_age_ma": 516.0, "min_age_ma": 512.1, "longitude": 102.333336, "latitude": 25.616667, "province": "Yunnan", "biological_group": "动物", "chapter_label": "第一章"}, "geometry": {"type": "Point", "coordinates": [102.333336, 25.616667]}}, {"type": "Feature", "properties": {"objectid": 1249, "fossil_id": 1104461, "species_name": "Wudingscolex sapushanensis", "geological_stage": "Botomian", "max_age_ma": 516.0, "min_age_ma": 512.1, "longitude": 102.333336, "latitude": 25.616667, "province": "Yunnan", "biological_group": "动物", "chapter_label": "第一章"}, "geometry": {"type": "Point", "coordinates": [102.333336, 25.616667]}}, {"type": "Feature", "properties": {"objectid": 1254, "fossil_id": 1220160, "species_name": "Wiwaxia foliosa", "geological_stage": "Atdabanian", "max_age_ma": 521.0, "min_age_ma": 512.1, "longitude": 102.800003, "latitude": 25.1, "province": "Yunnan", "biological_group": "动物", "chapter_label": "第一章"}, "geometry": {"type": "Point", "coordinates": [102.800003, 25.1]}}, {"type": "Feature", "properties": {"objectid": 1697, "fossil_id": 1615434, "species_name": "Collinsium ciliosum n. gen. n. sp.", "geological_stage": "Atdabanian", "max_age_ma": 521.0, "min_age_ma": 512.1, "longitude": 102.800003, "latitude": 25.1, "province": "Yunnan", "biological_group": "动物", "chapter_label": "第一章"}, "geometry": {"type": "Point", "coordinates": [102.800003, 25.1]}}, {"type": "Feature", "properties": {"objectid": 1707, "fossil_id": 1654445, "species_name": "Fuxianhuia xiaoshibaensis n. sp.", "geological_stage": "Nangaoian", "max_age_ma": 521.0, "min_age_ma": 514.5, "longitude": 102.800003, "latitude": 25.1, "province": "Yunnan", "biological_group": "动物", "chapter_label": "第一章"}, "geometry": {"type": "Point", "coordinates": [102.800003, 25.1]}}, {"type": "Feature", "properties": {"objectid": 1708, "fossil_id": 1654446, "species_name": "Zhangshania typica", "geological_stage": "Nangaoian", "max_age_ma": 521.0, "min_age_ma": 514.5, "longitude": 102.800003, "latitude": 25.1, "province": "Yunnan", "biological_group": "动物", "chapter_label": "第一章"}, "geometry": {"type": "Point", "coordinates": [102.800003, 25.1]}}, {"type": "Feature", "properties": {"objectid": 1709, "fossil_id": 1654448, "species_name": "Chengjiangocaris kunmingensis n. sp.", "geological_stage": "Nangaoian", "max_age_ma": 521.0, "min_age_ma": 514.5, "longitude": 102.800003, "latitude": 25.1, "province": "Yunnan", "biological_group": "动物", "chapter_label": "第一章"}, "geometry": {"type": "Point", "coordinates": [102.800003, 25.1]}}, {"type": "Feature", "properties": {"objectid": 1710, "fossil_id": 1654449, "species_name": "Yunnanocephalus sp.", "geological_stage": "Nangaoian", "max_age_ma": 521.0, "min_age_ma": 514.5, "longitude": 102.800003, "latitude": 25.1, "province": "Yunnan", "biological_group": "动物", "chapter_label": "第一章"}, "geometry": {"type": "Point", "coordinates": [102.800003, 25.1]}}, {"type": "Feature", "properties": {"objectid": 1711, "fossil_id": 1654450, "species_name": "Chengjiangaspis sp.", "geological_stage": "Nangaoian", "max_age_ma": 521.0, "min_age_ma": 514.5, "longitude": 102.800003, "latitude": 25.1, "province": "Yunnan", "biological_group": "动物", "chapter_label": "第一章"}, "geometry": {"type": "Point", "coordinates": [102.800003, 25.1]}}, {"type": "Feature", "properties": {"objectid": 1722, "fossil_id": 1655986, "species_name": "Selkirkia sinica", "geological_stage": "Nangaoian", "max_age_ma": 521.0, "min_age_ma": 514.5, "longitude": 102.800003, "latitude": 25.1, "province": "Yunnan", "biological_group": "动物", "chapter_label": "第一章"}, "geometry": {"type": "Point", "coordinates": [102.800003, 25.1]}}, {"type": "Feature", "properties": {"objectid": 1726, "fossil_id": 1660043, "species_name": "Wiwaxia douposiensis", "geological_stage": "Duyunian", "max_age_ma": 514.5, "min_age_ma": 506.5, "longitude": 103.198334, "latitude": 24.818611, "province": "Yunnan", "biological_group": "动物", "chapter_label": "第一章"}, "geometry": {"type": "Point", "coordinates": [103.198334, 24.818611]}}, {"type": "Feature", "properties": {"objectid": 1731, "fossil_id": 1700391, "species_name": "Doulia rara n. gen. n. sp.", "geological_stage": "Stage 3", "max_age_ma": 521.0, "min_age_ma": 514.5, "longitude": 102.820816, "latitude": 24.97237, "province": "Yunnan", "biological_group": "动物", "chapter_label": "第一章"}, "geometry": {"type": "Point", "coordinates": [102.820816, 24.97237]}}, {"type": "Feature", "properties": {"objectid": 1732, "fossil_id": 1700392, "species_name": "Eolaminaria simigladiola n. sp.", "geological_stage": "Stage 3", "max_age_ma": 521.0, "min_age_ma": 514.5, "longitude": 102.820816, "latitude": 24.97237, "province": "Yunnan", "biological_group": "动物", "chapter_label": "第一章"}, "geometry": {"type": "Point", "coordinates": [102.820816, 24.97237]}}, {"type": "Feature", "properties": {"objectid": 1733, "fossil_id": 1700393, "species_name": "Singulariphyca ramosa n. gen. n. sp.", "geological_stage": "Stage 3", "max_age_ma": 521.0, "min_age_ma": 514.5, "longitude": 102.820816, "latitude": 24.97237, "province": "Yunnan", "biological_group": "动物", "chapter_label": "第一章"}, "geometry": {"type": "Point", "coordinates": [102.820816, 24.97237]}}, {"type": "Feature", "properties": {"objectid": 1734, "fossil_id": 1700394, "species_name": "Rugophyca longa n. gen. n. sp.", "geological_stage": "Stage 3", "max_age_ma": 521.0, "min_age_ma": 514.5, "longitude": 102.820816, "latitude": 24.97237, "province": "Yunnan", "biological_group": "动物", "chapter_label": "第一章"}, "geometry": {"type": "Point", "coordinates": [102.820816, 24.97237]}}, {"type": "Feature", "properties": {"objectid": 1737, "fossil_id": 2060314, "species_name": "Herpetogaster haiyanensis n. sp.", "geological_stage": "Stage 3", "max_age_ma": 521.0, "min_age_ma": 514.5, "longitude": 102.769997, "latitude": 24.809999, "province": "Yunnan", "biological_group": "动物", "chapter_label": "第一章"}, "geometry": {"type": "Point", "coordinates": [102.769997, 24.809999]}}]}